;FLAVOR:Marlin
;TIME:105
;Filament used: 0.0901515m
;Layer height: 0.15
;MINX:202.938
;MINY:201.413
;MINZ:0.15
;MAXX:227.062
;MAXY:228.587
;MAXZ:1.8
;TARGET_MACHINE.NAME:ELEGOO NEPTUNE 4 Max
;Generated with Cura_SteamEngine 5.9.0
M82 ;absolute extrusion mode
;ELEGOO NEPTUNE 4 MAX
M220 S100 ;Set the feed speed to 100%
M221 S100 ;Set the flow rate to 100%
M104 S140 ;Start heating extruder
M190 S60 ;Wait for the bed to reach print temp
G90
G28 ;home
G1 Z10 F300
G1 X165 Y0 F6000
G1 Z0 F300
M109 S210 ;Wait for extruder to reach print temp
G92 E0 ;Reset Extruder
G1 X165 Y0 Z0.4 F300 ;Move to start position
G1 X265 E30 F400 ;Draw the first line
G1 Z0.6 F120.0 ;Move to side a little
G1 X260 F3000
G92 E0 ;Reset Extruder
G92 E0
G92 E0
G1 F2700 E-0.5
;LAYER_COUNT:12
;LAYER:0
M107
M204 S500
G0 F7200 X220.296 Y228.587 Z0.15
;TYPE:SKIRT
G1 F2700 E0
G1 F3600 X208.182 Y228.587 E0.39662
G1 X206.767 Y228.304 E0.44386
G1 X205.597 Y227.658 E0.48762
G1 X204.652 Y226.87 E0.52791
G1 X203.789 Y225.475 E0.58161
G1 X203.722 Y225.312 E0.58738
G1 X203.413 Y223.913 E0.63429
G1 X203.413 Y222.182 E0.69096
G1 X203.664 Y220.929 E0.7328
G1 X203.815 Y220.586 E0.74507
G1 X203.53 Y220.102 E0.76346
G1 X202.938 Y218.1 E0.83181
G1 X202.938 Y215.903 E0.90374
G1 X203.555 Y213.818 E0.97493
G1 X204.081 Y212.999 E1.0068
G1 X203.552 Y212.176 E1.03883
G1 X202.938 Y210.1 E1.10971
G1 X202.938 Y207.903 E1.18164
G1 X203.554 Y205.82 E1.25276
G1 X204.718 Y204.006 E1.32333
G1 X206.371 Y202.567 E1.39508
G1 X208.176 Y201.747 E1.45999
G1 X209.704 Y201.413 E1.5112
G1 X221.818 Y201.413 E1.90782
G1 X223.233 Y201.696 E1.95506
G1 X224.403 Y202.342 E1.99882
G1 X225.348 Y203.13 E2.03911
G1 X226.211 Y204.525 E2.09281
G1 X226.278 Y204.688 E2.09858
G1 X226.587 Y206.087 E2.14549
G1 X226.587 Y207.818 E2.20216
G1 X226.336 Y209.071 E2.244
G1 X226.185 Y209.414 E2.25627
G1 X226.47 Y209.898 E2.27466
G1 X227.062 Y211.9 E2.34301
G1 X227.062 Y214.097 E2.41495
G1 X226.445 Y216.182 E2.48614
G1 X225.919 Y217.001 E2.518
G1 X226.448 Y217.824 E2.55004
G1 X227.062 Y219.9 E2.62092
G1 X227.062 Y222.097 E2.69285
G1 X226.446 Y224.18 E2.76396
G1 X225.282 Y225.994 E2.83453
G1 X223.629 Y227.433 E2.90628
G1 X221.824 Y228.253 E2.97119
G1 X220.296 Y228.587 E3.0224
G0 F7200 X220.239 Y228.062
G1 F3600 X221.658 Y227.752 E3.06996
G1 X223.341 Y226.987 E3.13048
G1 X224.88 Y225.648 E3.19727
G1 X225.965 Y223.957 E3.26305
G1 X226.537 Y222.022 E3.32912
G1 X226.537 Y219.975 E3.39614
G1 X225.967 Y218.047 E3.46196
G1 X225.295 Y217.001 E3.50267
G1 X225.964 Y215.959 E3.54321
G1 X226.537 Y214.022 E3.60934
G1 X226.537 Y211.975 E3.67636
G1 X225.967 Y210.047 E3.74219
G1 X225.582 Y209.447 E3.76553
G1 X225.821 Y208.968 E3.78305
G1 X226.062 Y207.765 E3.82322
G1 X226.062 Y206.146 E3.87623
G1 X225.765 Y204.801 E3.92133
G1 X224.947 Y203.479 E3.97223
G1 X224.105 Y202.777 E4.00812
G1 X223.052 Y202.195 E4.04751
G1 X221.765 Y201.938 E4.09048
G1 X209.761 Y201.938 E4.48349
G1 X208.342 Y202.248 E4.53105
G1 X206.659 Y203.013 E4.59158
G1 X205.12 Y204.352 E4.65836
G1 X204.035 Y206.043 E4.72414
G1 X203.463 Y207.978 E4.79021
G1 X203.463 Y210.025 E4.85723
G1 X204.033 Y211.953 E4.92305
G1 X204.705 Y212.999 E4.96376
G1 X204.036 Y214.041 E5.0043
G1 X203.463 Y215.978 E5.07043
G1 X203.463 Y218.025 E5.13745
G1 X204.033 Y219.953 E5.20328
G1 X204.418 Y220.553 E5.22662
G1 X204.179 Y221.032 E5.24414
G1 X203.938 Y222.235 E5.28431
G1 X203.938 Y223.854 E5.33732
G1 X204.235 Y225.199 E5.38242
G1 X205.053 Y226.521 E5.43332
G1 X205.895 Y227.223 E5.46921
G1 X206.948 Y227.805 E5.5086
G1 X208.235 Y228.062 E5.55157
G1 X220.239 Y228.062 E5.94458
G0 F7200 X220.182 Y227.537
G1 F3600 X221.492 Y227.251 E5.98848
G1 X223.053 Y226.541 E6.04463
G1 X224.48 Y225.3 E6.10655
G1 X225.483 Y223.736 E6.16738
G1 X226.012 Y221.947 E6.22846
G1 X226.012 Y220.05 E6.29057
G1 X225.486 Y218.27 E6.35134
G1 X224.671 Y217.001 E6.40071
G1 X225.483 Y215.736 E6.44993
G1 X226.012 Y213.947 E6.51101
G1 X226.012 Y212.05 E6.57312
G1 X225.486 Y210.27 E6.63389
G1 X224.97 Y209.467 E6.66514
G1 X225.306 Y208.865 E6.68771
G1 X225.537 Y207.712 E6.72621
G1 X225.537 Y206.205 E6.77555
G1 X225.271 Y205.002 E6.81589
G1 X224.544 Y203.826 E6.86115
G1 X223.811 Y203.215 E6.8924
G1 X222.868 Y202.694 E6.92767
G1 X221.712 Y202.463 E6.96627
G1 X209.818 Y202.463 E7.35568
G1 X208.508 Y202.749 E7.39958
G1 X206.947 Y203.459 E7.45573
G1 X205.52 Y204.7 E7.51764
G1 X204.517 Y206.264 E7.57847
G1 X203.988 Y208.053 E7.63955
G1 X203.988 Y209.95 E7.70166
G1 X204.514 Y211.73 E7.76243
G1 X205.329 Y212.999 E7.81181
G1 X204.517 Y214.264 E7.86103
G1 X203.988 Y216.053 E7.9221
G1 X203.988 Y217.95 E7.98421
G1 X204.514 Y219.73 E8.04498
G1 X205.03 Y220.533 E8.07623
G1 X204.694 Y221.135 E8.09881
G1 X204.463 Y222.288 E8.13731
G1 X204.463 Y223.795 E8.18665
G1 X204.729 Y224.998 E8.22698
G1 X205.456 Y226.174 E8.27225
G1 X206.189 Y226.785 E8.30349
G1 X207.132 Y227.306 E8.33877
G1 X208.288 Y227.537 E8.37736
G1 X220.182 Y227.537 E8.76678
G0 F7200 X220.125 Y227.012
G1 F3600 X221.326 Y226.75 E8.80702
G1 X222.765 Y226.095 E8.85879
G1 X224.078 Y224.953 E8.91576
G1 X225.002 Y223.513 E8.97178
G1 X225.487 Y221.872 E9.0278
G1 X225.487 Y220.125 E9.085
G1 X225.005 Y218.493 E9.14071
G1 X224.047 Y217.001 E9.19877
G1 X225.002 Y215.513 E9.25665
G1 X225.487 Y213.872 E9.31268
G1 X225.487 Y212.125 E9.36988
G1 X225.005 Y210.493 E9.42559
G1 X224.358 Y209.486 E9.46478
G1 X224.807 Y208.683 E9.4949
G1 X225.012 Y207.659 E9.52909
G1 X225.012 Y206.264 E9.57476
G1 X224.777 Y205.2 E9.61044
G1 X224.143 Y204.175 E9.6499
G1 X223.517 Y203.653 E9.67659
G1 X222.684 Y203.193 E9.70774
G1 X221.659 Y202.988 E9.74196
G1 X209.875 Y202.988 E10.12778
G1 X208.674 Y203.25 E10.16802
G1 X207.235 Y203.905 E10.21979
G1 X205.922 Y205.047 E10.27676
G1 X204.998 Y206.487 E10.33278
G1 X204.513 Y208.128 E10.3888
G1 X204.513 Y209.875 E10.446
G1 X204.995 Y211.507 E10.50171
G1 X205.953 Y212.999 E10.55977
G1 X204.998 Y214.487 E10.61765
G1 X204.513 Y216.128 E10.67368
G1 X204.513 Y217.875 E10.73088
G1 X204.995 Y219.507 E10.78659
G1 X205.642 Y220.514 E10.82578
G1 X205.193 Y221.317 E10.8559
G1 X204.988 Y222.341 E10.89009
G1 X204.988 Y223.736 E10.93576
G1 X205.223 Y224.8 E10.97144
G1 X205.857 Y225.825 E11.0109
G1 X206.483 Y226.347 E11.03759
G1 X207.316 Y226.807 E11.06874
G1 X208.341 Y227.012 E11.10296
G1 X220.125 Y227.012 E11.48878
G0 F7200 X220.068 Y226.487
G1 F3600 X221.158 Y226.249 E11.52531
G1 X222.478 Y225.648 E11.57279
G1 X223.676 Y224.606 E11.62478
G1 X224.521 Y223.29 E11.67598
G1 X224.962 Y221.797 E11.72695
G1 X224.962 Y220.203 E11.77914
G1 X224.522 Y218.713 E11.83
G1 X223.668 Y217.384 E11.88172
G1 X223.223 Y216.999 E11.90099
G1 X223.676 Y216.606 E11.92062
G1 X224.521 Y215.29 E11.97183
G1 X224.962 Y213.797 E12.0228
G1 X224.962 Y212.203 E12.07499
G1 X224.522 Y210.713 E12.12585
G1 X223.714 Y209.456 E12.17478
G1 X223.935 Y209.177 E12.18643
G1 X224.308 Y208.5 E12.21174
G1 X224.487 Y207.606 E12.24159
G1 X224.487 Y206.323 E12.28359
G1 X224.283 Y205.398 E12.31461
G1 X223.742 Y204.524 E12.34826
G1 X223.223 Y204.091 E12.37039
G1 X222.5 Y203.692 E12.39742
G1 X221.606 Y203.513 E12.42728
G1 X209.932 Y203.513 E12.80949
G1 X208.842 Y203.751 E12.84602
G1 X207.522 Y204.352 E12.8935
G1 X206.324 Y205.394 E12.94549
G1 X205.479 Y206.71 E12.99669
G1 X205.038 Y208.203 E13.04766
G1 X205.038 Y209.797 E13.09985
G1 X205.478 Y211.287 E13.15071
G1 X206.332 Y212.616 E13.20243
G1 X206.777 Y213.001 E13.2217
G1 X206.324 Y213.394 E13.24133
G1 X205.479 Y214.71 E13.29254
G1 X205.038 Y216.203 E13.34351
G1 X205.038 Y217.797 E13.3957
G1 X205.478 Y219.287 E13.44656
G1 X206.286 Y220.544 E13.49549
G1 X206.065 Y220.823 E13.50714
G1 X205.692 Y221.5 E13.53245
G1 X205.513 Y222.394 E13.5623
G1 X205.513 Y223.677 E13.6043
G1 X205.717 Y224.602 E13.63532
G1 X206.258 Y225.476 E13.66897
G1 X206.777 Y225.909 E13.6911
G1 X207.5 Y226.308 E13.71813
G1 X208.394 Y226.487 E13.74799
G1 X220.068 Y226.487 E14.1302
G0 F7200 X220.011 Y225.962
G1 F3600 X208.447 Y225.962 E14.50881
G1 X207.682 Y225.809 E14.53435
G1 X207.076 Y225.475 E14.55701
G1 X206.66 Y225.127 E14.57476
G1 X206.211 Y224.401 E14.60271
G1 X206.038 Y223.618 E14.62896
G1 X206.038 Y222.447 E14.6673
G1 X206.191 Y221.682 E14.69285
G1 X206.525 Y221.076 E14.7155
G1 X206.828 Y220.714 E14.73096
G1 X207.056 Y220.547 E14.74021
G1 X206.693 Y220.206 E14.75652
G1 X205.961 Y219.067 E14.80084
G1 X205.563 Y217.719 E14.84686
G1 X205.563 Y216.281 E14.89394
G1 X205.962 Y214.93 E14.94006
G1 X206.727 Y213.739 E14.98641
G1 X207.578 Y213 E15.02331
G1 X206.734 Y212.27 E15.05985
G1 X205.961 Y211.067 E15.10666
G1 X205.563 Y209.719 E15.15268
G1 X205.563 Y208.281 E15.19976
G1 X205.962 Y206.93 E15.24588
G1 X206.727 Y205.739 E15.29223
G1 X207.807 Y204.8 E15.33908
G1 X209.01 Y204.252 E15.38236
G1 X209.989 Y204.038 E15.41517
G1 X221.553 Y204.038 E15.79378
G1 X222.318 Y204.191 E15.81933
G1 X222.924 Y204.525 E15.84198
G1 X223.34 Y204.873 E15.85974
G1 X223.789 Y205.599 E15.88769
G1 X223.962 Y206.382 E15.91394
G1 X223.962 Y207.553 E15.95228
G1 X223.809 Y208.318 E15.97782
G1 X223.475 Y208.924 E16.00048
G1 X223.172 Y209.286 E16.01593
G1 X222.944 Y209.453 E16.02518
G1 X223.307 Y209.794 E16.04149
G1 X224.039 Y210.933 E16.08582
G1 X224.437 Y212.281 E16.13184
G1 X224.437 Y213.719 E16.17892
G1 X224.038 Y215.07 E16.22504
G1 X223.273 Y216.261 E16.27138
G1 X222.422 Y217 E16.30829
G1 X223.266 Y217.73 E16.34482
G1 X224.039 Y218.933 E16.39164
G1 X224.437 Y220.281 E16.43765
G1 X224.437 Y221.719 E16.48474
G1 X224.038 Y223.07 E16.53086
G1 X223.273 Y224.261 E16.5772
G1 X222.193 Y225.2 E16.62406
G1 X220.99 Y225.748 E16.66734
G1 X220.011 Y225.962 E16.70015
G1 F2700 E16.20015
G0 F7200 X220.822 Y225.247
G1 F2700 E16.70015
G1 F3600 X219.954 Y225.437 E16.72924
G1 X208.5 Y225.437 E17.10425
G1 X207.865 Y225.31 E17.12545
G1 X207.33 Y225.015 E17.14545
G1 X207.061 Y224.778 E17.15719
G1 X206.705 Y224.203 E17.17933
G1 X206.563 Y223.559 E17.20092
G1 X206.563 Y222.5 E17.2356
G1 X206.69 Y221.865 E17.2568
G1 X206.985 Y221.33 E17.2768
G1 X207.222 Y221.061 E17.28854
G1 X207.734 Y220.744 E17.30825
G1 X207.991 Y220.662 E17.31709
G1 X207.135 Y219.922 E17.35413
G1 X206.444 Y218.847 E17.39597
G1 X206.088 Y217.641 E17.43714
G1 X206.088 Y216.359 E17.47912
G1 X206.445 Y215.15 E17.52039
G1 X207.13 Y214.084 E17.56187
G1 X208.092 Y213.248 E17.6036
G1 X208.641 Y212.998 E17.62335
G1 X208.086 Y212.745 E17.64332
G1 X207.135 Y211.922 E17.6845
G1 X206.444 Y210.847 E17.72634
G1 X206.088 Y209.641 E17.76751
G1 X206.088 Y208.359 E17.80948
G1 X206.445 Y207.15 E17.85075
G1 X207.13 Y206.084 E17.89224
G1 X208.092 Y205.248 E17.93397
G1 X209.178 Y204.753 E17.97304
G1 X210.046 Y204.563 E18.00213
G1 X221.5 Y204.563 E18.37714
G1 X222.135 Y204.69 E18.39835
G1 X222.67 Y204.985 E18.41835
G1 X222.939 Y205.222 E18.43009
G1 X223.295 Y205.797 E18.45223
G1 X223.437 Y206.441 E18.47382
G1 X223.437 Y207.5 E18.50849
G1 X223.31 Y208.135 E18.52969
G1 X223.015 Y208.67 E18.5497
G1 X222.778 Y208.939 E18.56143
G1 X222.266 Y209.256 E18.58115
G1 X222.009 Y209.338 E18.58998
G1 X222.865 Y210.078 E18.62703
G1 X223.556 Y211.153 E18.66887
G1 X223.912 Y212.359 E18.71004
G1 X223.912 Y213.641 E18.75201
G1 X223.555 Y214.85 E18.79328
G1 X222.87 Y215.916 E18.83477
G1 X221.908 Y216.752 E18.8765
G1 X221.359 Y217.002 E18.89625
G1 X221.914 Y217.255 E18.91622
G1 X222.865 Y218.078 E18.95739
G1 X223.556 Y219.153 E18.99923
G1 X223.912 Y220.359 E19.0404
G1 X223.912 Y221.641 E19.08238
G1 X223.555 Y222.85 E19.12365
G1 X222.87 Y223.916 E19.16514
G1 X221.908 Y224.752 E19.20686
G1 X220.822 Y225.247 E19.24594
G0 F7200 X220.654 Y224.746
G1 F3600 X221.623 Y224.304 E19.28081
G1 X222.467 Y223.571 E19.31741
G1 X223.072 Y222.63 E19.35403
G1 X223.387 Y221.563 E19.39046
G1 X223.387 Y220.437 E19.42733
G1 X223.073 Y219.373 E19.46365
G1 X222.464 Y218.426 E19.50051
G1 X221.625 Y217.7 E19.53684
G1 X220.65 Y217.254 E19.57194
G1 X219.9 Y217.089 E19.59708
G1 X210.632 Y217.088 E19.90052
G1 X210.478 Y217.059 E19.90565
G1 X210.444 Y216.971 E19.90874
G1 X210.558 Y216.913 E19.91293
G1 X219.897 Y216.912 E20.21869
G1 X220.654 Y216.746 E20.24406
G1 X221.623 Y216.304 E20.27893
G1 X222.467 Y215.571 E20.31553
G1 X223.072 Y214.63 E20.35216
G1 X223.387 Y213.563 E20.38858
G1 X223.387 Y212.437 E20.42545
G1 X223.073 Y211.373 E20.46177
G1 X222.464 Y210.426 E20.49863
G1 X221.625 Y209.7 E20.53496
G1 X220.65 Y209.254 E20.57006
G1 X219.9 Y209.089 E20.59521
G1 X210.632 Y209.088 E20.89864
G1 X210.478 Y209.059 E20.90377
G1 X210.438 Y209.011 E20.90582
G1 X210.48 Y208.94 E20.90852
G1 X210.63 Y208.912 E20.91352
G1 X221.5 Y208.912 E21.26941
G1 X222.004 Y208.801 E21.2863
G1 X222.403 Y208.571 E21.30138
G1 X222.555 Y208.416 E21.30849
G1 X222.85 Y207.881 E21.32849
G1 X222.912 Y207.5 E21.34113
G1 X222.912 Y206.5 E21.37387
G1 X222.801 Y205.996 E21.39077
G1 X222.571 Y205.597 E21.40584
G1 X222.416 Y205.445 E21.41295
G1 X221.881 Y205.15 E21.43295
G1 X221.5 Y205.088 E21.44559
G1 X210.103 Y205.088 E21.81874
G1 X209.346 Y205.254 E21.84411
G1 X208.377 Y205.696 E21.87898
G1 X207.533 Y206.429 E21.91558
G1 X206.928 Y207.37 E21.95221
G1 X206.613 Y208.437 E21.98863
G1 X206.613 Y209.563 E22.0255
G1 X206.927 Y210.627 E22.06182
G1 X207.536 Y211.574 E22.09868
G1 X208.375 Y212.3 E22.13501
G1 X209.35 Y212.746 E22.17011
G1 X210.1 Y212.911 E22.19525
G1 X219.368 Y212.912 E22.49869
G1 X219.522 Y212.941 E22.50382
G1 X219.558 Y213.027 E22.50687
G1 X219.44 Y213.087 E22.51121
G1 X210.103 Y213.088 E22.8169
G1 X209.346 Y213.254 E22.84228
G1 X208.377 Y213.696 E22.87715
G1 X207.533 Y214.429 E22.91375
G1 X206.928 Y215.37 E22.95037
G1 X206.613 Y216.437 E22.9868
G1 X206.613 Y217.563 E23.02366
G1 X206.927 Y218.627 E23.05999
G1 X207.536 Y219.574 E23.09685
G1 X208.375 Y220.3 E23.13317
G1 X209.35 Y220.746 E23.16828
G1 X210.1 Y220.911 E23.19342
G1 X219.368 Y220.912 E23.49686
G1 X219.522 Y220.941 E23.50199
G1 X219.558 Y221.027 E23.50504
G1 X219.44 Y221.087 E23.50938
G1 X208.5 Y221.088 E23.86756
G1 X207.996 Y221.199 E23.88445
G1 X207.597 Y221.429 E23.89953
G1 X207.445 Y221.584 E23.90664
G1 X207.15 Y222.119 E23.92664
G1 X207.088 Y222.5 E23.93928
G1 X207.088 Y223.5 E23.97202
G1 X207.199 Y224.004 E23.98892
G1 X207.429 Y224.403 E24.004
G1 X207.584 Y224.555 E24.0111
G1 X208.119 Y224.85 E24.03111
G1 X208.5 Y224.912 E24.04374
G1 X219.897 Y224.912 E24.41689
G1 X220.654 Y224.746 E24.44226
G1 F2700 E23.94226
G0 F7200 X220.318 Y223.744
G1 F2700 E24.44226
G1 F3600 X219.781 Y223.862 E24.46026
G1 X208.5 Y223.862 E24.82961
G1 X208.336 Y223.823 E24.83513
G1 X208.207 Y223.713 E24.84068
G1 X208.138 Y223.5 E24.84801
G1 X208.138 Y222.5 E24.88075
G1 X208.177 Y222.336 E24.88627
G1 X208.287 Y222.207 E24.89182
G1 X208.5 Y222.138 E24.89915
G1 X219.639 Y222.137 E25.26384
G1 X219.892 Y222.065 E25.27246
G1 X220.264 Y221.836 E25.28676
G1 X220.514 Y221.504 E25.30036
G1 X220.628 Y221.104 E25.31398
G1 X220.589 Y220.691 E25.32756
G1 X220.395 Y220.302 E25.3418
G1 X220.279 Y220.173 E25.34748
G1 X219.91 Y219.945 E25.36168
G1 X219.464 Y219.862 E25.37653
G1 X210.215 Y219.861 E25.67935
G1 X209.682 Y219.744 E25.69721
G1 X208.951 Y219.41 E25.72353
G1 X208.336 Y218.877 E25.75017
G1 X207.894 Y218.19 E25.77692
G1 X207.663 Y217.407 E25.80364
G1 X207.663 Y216.593 E25.8303
G1 X207.894 Y215.81 E25.85702
G1 X208.335 Y215.123 E25.88375
G1 X208.951 Y214.59 E25.91042
G1 X209.682 Y214.256 E25.93673
G1 X210.219 Y214.138 E25.95474
G1 X219.639 Y214.137 E26.26315
G1 X219.892 Y214.065 E26.27176
G1 X220.264 Y213.836 E26.28607
G1 X220.514 Y213.504 E26.29967
G1 X220.628 Y213.104 E26.31329
G1 X220.589 Y212.691 E26.32687
G1 X220.395 Y212.302 E26.3411
G1 X220.279 Y212.173 E26.34678
G1 X219.91 Y211.945 E26.36099
G1 X219.464 Y211.862 E26.37584
G1 X210.215 Y211.861 E26.67865
G1 X209.682 Y211.744 E26.69652
G1 X208.951 Y211.41 E26.72283
G1 X208.336 Y210.877 E26.74948
G1 X207.894 Y210.19 E26.77622
G1 X207.663 Y209.407 E26.80295
G1 X207.663 Y208.593 E26.8296
G1 X207.894 Y207.81 E26.85633
G1 X208.335 Y207.123 E26.88306
G1 X208.951 Y206.59 E26.90973
G1 X209.682 Y206.256 E26.93604
G1 X210.219 Y206.138 E26.95404
G1 X221.5 Y206.138 E27.32339
G1 X221.664 Y206.177 E27.32891
G1 X221.793 Y206.287 E27.33446
G1 X221.862 Y206.5 E27.34179
G1 X221.862 Y207.5 E27.37453
G1 X221.823 Y207.664 E27.38005
G1 X221.713 Y207.793 E27.3856
G1 X221.5 Y207.862 E27.39293
G1 X210.536 Y207.862 E27.7519
G1 X210.092 Y207.944 E27.76668
G1 X209.736 Y208.165 E27.7804
G1 X209.487 Y208.496 E27.79396
G1 X209.372 Y208.896 E27.80759
G1 X209.411 Y209.309 E27.82117
G1 X209.605 Y209.698 E27.8354
G1 X209.721 Y209.827 E27.84108
G1 X210.09 Y210.055 E27.85528
G1 X210.536 Y210.138 E27.87013
G1 X219.785 Y210.139 E28.17295
G1 X220.318 Y210.256 E28.19082
G1 X221.049 Y210.59 E28.21713
G1 X221.664 Y211.123 E28.24377
G1 X222.106 Y211.81 E28.27052
G1 X222.337 Y212.593 E28.29725
G1 X222.337 Y213.407 E28.3239
G1 X222.106 Y214.19 E28.35063
G1 X221.665 Y214.877 E28.37736
G1 X221.049 Y215.41 E28.40402
G1 X220.318 Y215.744 E28.43034
G1 X219.781 Y215.862 E28.44834
G1 X210.361 Y215.863 E28.75675
G1 X210.108 Y215.935 E28.76537
G1 X209.736 Y216.164 E28.77967
G1 X209.487 Y216.496 E28.79326
G1 X209.372 Y216.896 E28.80688
G1 X209.411 Y217.309 E28.82046
G1 X209.605 Y217.698 E28.8347
G1 X209.721 Y217.827 E28.84038
G1 X210.09 Y218.055 E28.85458
G1 X210.536 Y218.138 E28.86943
G1 X219.785 Y218.139 E29.17225
G1 X220.318 Y218.256 E29.19011
G1 X221.049 Y218.59 E29.21643
G1 X221.664 Y219.123 E29.24307
G1 X222.106 Y219.81 E29.26982
G1 X222.337 Y220.593 E29.29655
G1 X222.337 Y221.407 E29.3232
G1 X222.106 Y222.19 E29.34992
G1 X221.665 Y222.877 E29.37665
G1 X221.049 Y223.41 E29.40332
G1 X220.318 Y223.744 E29.42964
G0 F7200 X220.486 Y224.245
M104 S200
G1 F3600 X219.839 Y224.387 E29.45132
G1 X208.5 Y224.387 E29.82257
G1 X208.215 Y224.334 E29.83206
G1 X207.866 Y224.112 E29.8456
G1 X207.708 Y223.875 E29.85493
G1 X207.613 Y223.5 E29.86759
G1 X207.613 Y222.5 E29.90033
G1 X207.666 Y222.215 E29.90982
G1 X207.888 Y221.866 E29.92336
G1 X208.125 Y221.708 E29.93269
G1 X208.5 Y221.613 E29.94536
G1 X219.565 Y221.612 E30.30763
G1 X219.904 Y221.441 E30.32006
G1 X220.036 Y221.267 E30.32721
G1 X220.096 Y221.055 E30.33442
G1 X220.075 Y220.837 E30.34159
G1 X219.941 Y220.582 E30.35103
G1 X219.716 Y220.443 E30.35969
G1 X219.416 Y220.387 E30.36968
G1 X210.157 Y220.386 E30.67282
G1 X209.514 Y220.245 E30.69437
G1 X208.664 Y219.856 E30.72498
G1 X207.935 Y219.224 E30.75657
G1 X207.411 Y218.41 E30.78826
G1 X207.138 Y217.485 E30.81984
G1 X207.138 Y216.515 E30.8516
G1 X207.411 Y215.59 E30.88317
G1 X207.934 Y214.776 E30.91485
G1 X208.664 Y214.143 E30.94649
G1 X209.514 Y213.755 E30.97708
G1 X210.161 Y213.613 E30.99876
G1 X219.565 Y213.612 E31.30666
G1 X219.904 Y213.441 E31.31909
G1 X220.036 Y213.267 E31.32624
G1 X220.096 Y213.055 E31.33345
G1 X220.075 Y212.837 E31.34062
G1 X219.941 Y212.582 E31.35005
G1 X219.716 Y212.443 E31.35871
G1 X219.416 Y212.387 E31.3687
G1 X210.157 Y212.386 E31.67185
G1 X209.514 Y212.245 E31.6934
G1 X208.664 Y211.856 E31.724
G1 X207.935 Y211.224 E31.75559
G1 X207.411 Y210.41 E31.78729
G1 X207.138 Y209.485 E31.81886
G1 X207.138 Y208.515 E31.85062
G1 X207.411 Y207.59 E31.8822
G1 X207.934 Y206.776 E31.91388
G1 X208.664 Y206.143 E31.94551
G1 X209.514 Y205.755 E31.9761
G1 X210.161 Y205.613 E31.99779
G1 X221.5 Y205.613 E32.36903
G1 X221.785 Y205.666 E32.37852
G1 X222.134 Y205.888 E32.39207
G1 X222.292 Y206.125 E32.40139
G1 X222.387 Y206.5 E32.41406
G1 X222.387 Y207.5 E32.4468
G1 X222.334 Y207.785 E32.45629
G1 X222.112 Y208.134 E32.46983
G1 X221.875 Y208.292 E32.47916
G1 X221.5 Y208.387 E32.49182
G1 X210.582 Y208.387 E32.84928
G1 X210.286 Y208.442 E32.85914
G1 X210.098 Y208.558 E32.86637
G1 X209.965 Y208.735 E32.87362
G1 X209.904 Y208.946 E32.88081
G1 X209.925 Y209.163 E32.88795
G1 X210.059 Y209.418 E32.89738
G1 X210.284 Y209.557 E32.90604
G1 X210.584 Y209.613 E32.91603
G1 X219.843 Y209.614 E33.21918
G1 X220.486 Y209.755 E33.24073
G1 X221.336 Y210.144 E33.27133
G1 X222.065 Y210.776 E33.30292
G1 X222.589 Y211.59 E33.33462
G1 X222.862 Y212.515 E33.36619
G1 X222.862 Y213.485 E33.39795
G1 X222.589 Y214.41 E33.42953
G1 X222.066 Y215.224 E33.46121
G1 X221.336 Y215.857 E33.49284
G1 X220.486 Y216.245 E33.52343
G1 X219.839 Y216.387 E33.54512
G1 X210.435 Y216.388 E33.85301
G1 X210.096 Y216.558 E33.86543
G1 X209.966 Y216.733 E33.87257
G1 X209.904 Y216.946 E33.87983
G1 X209.925 Y217.163 E33.88697
G1 X210.059 Y217.418 E33.8964
G1 X210.284 Y217.557 E33.90506
G1 X210.584 Y217.613 E33.91505
G1 X219.843 Y217.614 E34.21819
G1 X220.486 Y217.755 E34.23974
G1 X221.336 Y218.144 E34.27035
G1 X222.065 Y218.776 E34.30194
G1 X222.589 Y219.59 E34.33363
G1 X222.862 Y220.515 E34.36521
G1 X222.862 Y221.485 E34.39697
G1 X222.589 Y222.41 E34.42854
G1 X222.066 Y223.224 E34.46022
G1 X221.336 Y223.857 E34.49186
G1 X220.486 Y224.245 E34.52245
G1 F2700 E34.02245
;MESH:spring.stl
G0 F7200 X221.896 Y223.076
G0 X222.384 Y222.318
G0 X222.639 Y221.451
G0 X222.639 Y220.549
G0 X222.384 Y219.682
G0 X221.896 Y218.924
G0 X221.215 Y218.333
G0 X220.415 Y217.968
G0 X210.229 Y216.215
G0 X209.531 Y215
;TYPE:WALL-OUTER
G1 F2700 E34.52245
G1 F3757.5 X209.876 Y214.84 E34.53438
G1 F3772.5 X210.283 Y214.75 E34.5474
G1 X219.684 Y214.747 E34.84112
G1 F3818.2 X220.143 Y214.621 E34.85582
G1 F3873 X220.641 Y214.316 E34.87359
G1 F3825.9 X221.077 Y213.747 E34.89567
G1 F3795.2 X221.242 Y213.175 E34.91416
G1 F3825.9 X221.185 Y212.559 E34.93322
G1 F3857.1 X220.898 Y211.959 E34.95354
G1 F3873 X220.694 Y211.728 E34.96292
G1 F3888.9 X220.141 Y211.374 E34.98282
G1 F3825.9 X219.544 Y211.252 E35.00159
G1 F3720.5 X210.279 Y211.241 E35.29511
G1 F3713.2 X209.877 Y211.157 E35.30815
G1 F3720.5 X209.288 Y210.884 E35.32872
G1 F3750 X208.799 Y210.466 E35.34894
G1 X208.459 Y209.929 E35.36891
G1 F3705.9 X208.278 Y209.319 E35.38915
G1 F3742.6 X208.274 Y208.676 E35.4094
G1 F3780 X208.454 Y208.065 E35.42926
G1 F3757.5 X208.802 Y207.532 E35.44923
G1 F3720.5 X209.287 Y207.113 E35.46953
G1 X209.877 Y206.842 E35.4901
G1 F3705.9 X210.284 Y206.756 E35.50333
G1 F3735.2 X221.25 Y206.75 E35.84937
G1 F3780 X221.25 Y207.25 E35.86496
G1 F3764.9 X210.452 Y207.251 E36.20301
G1 F3780 X209.911 Y207.356 E36.22019
G1 F3833.7 X209.297 Y207.733 E36.24234
G1 F3825.9 X208.927 Y208.231 E36.26145
G1 F3795.2 X208.765 Y208.781 E36.27926
G1 F3825.9 X208.822 Y209.478 E36.3008
G1 F3865 X209.098 Y210.037 E36.31982
G1 F3857.1 X209.302 Y210.268 E36.32923
G1 F3849.3 X209.897 Y210.639 E36.3507
G1 F3795.2 X210.45 Y210.747 E36.3682
G1 F3750 X219.687 Y210.75 E36.65853
G1 F3735.2 X220.119 Y210.841 E36.67246
G1 X220.709 Y211.112 E36.69295
G1 F3750 X221.197 Y211.53 E36.71314
G1 X221.537 Y212.067 E36.73312
G1 F3705.9 X221.718 Y212.677 E36.75336
G1 F3742.6 X221.722 Y213.32 E36.77361
G1 F3780 X221.542 Y213.931 E36.79347
G1 F3764.9 X221.195 Y214.464 E36.81338
G1 F3735.2 X220.709 Y214.884 E36.83365
G1 F3742.6 X220.119 Y215.16 E36.85416
G1 F3764.9 X219.717 Y215.249 E36.86705
G1 F3772.5 X210.311 Y215.25 E37.16093
G1 F3825.9 X209.854 Y215.378 E37.17555
G1 F3857.1 X209.297 Y215.736 E37.19579
G1 F3825.9 X208.927 Y216.231 E37.21482
G1 F3795.2 X208.765 Y216.781 E37.23263
G1 F3825.9 X208.822 Y217.478 E37.25418
G1 F3865 X209.098 Y218.037 E37.27319
G1 F3857.1 X209.302 Y218.268 E37.2826
G1 F3849.3 X209.897 Y218.639 E37.30408
G1 F3795.2 X210.45 Y218.747 E37.32157
G1 F3750 X219.687 Y218.75 E37.6119
G1 F3735.2 X220.119 Y218.841 E37.62583
G1 X220.709 Y219.112 E37.64632
G1 F3750 X221.197 Y219.53 E37.66652
G1 X221.537 Y220.067 E37.68649
G1 F3705.9 X221.718 Y220.677 E37.70673
G1 F3742.6 X221.722 Y221.32 E37.72698
G1 F3780 X221.542 Y221.931 E37.74684
G1 F3764.9 X221.195 Y222.464 E37.76675
G1 F3735.2 X220.709 Y222.884 E37.78702
G1 F3742.6 X220.119 Y223.16 E37.80754
G1 F3764.9 X219.717 Y223.249 E37.82042
G1 F3772.5 X208.75 Y223.25 E38.16307
G1 F3780 X208.75 Y222.75 E38.17867
G1 F3772.5 X219.684 Y222.747 E38.52028
G1 F3818.2 X220.143 Y222.621 E38.53498
G1 F3873 X220.641 Y222.316 E38.55275
G1 F3825.9 X221.077 Y221.747 E38.57483
G1 F3795.2 X221.242 Y221.175 E38.59332
G1 F3825.9 X221.185 Y220.559 E38.61238
G1 F3857.1 X220.898 Y219.959 E38.63271
G1 F3873 X220.694 Y219.728 E38.64208
G1 F3888.9 X220.141 Y219.374 E38.66198
G1 F3825.9 X219.544 Y219.252 E38.68076
G1 F3720.5 X210.279 Y219.241 E38.97427
G1 F3713.2 X209.877 Y219.157 E38.98731
G1 F3720.5 X209.288 Y218.884 E39.00788
G1 F3750 X208.799 Y218.466 E39.0281
G1 X208.459 Y217.929 E39.04807
G1 F3705.9 X208.278 Y217.319 E39.06831
G1 F3742.6 X208.274 Y216.676 E39.08856
G1 F3780 X208.454 Y216.065 E39.10842
G1 F3750 X208.802 Y215.532 E39.12843
G1 F3713.2 X209.288 Y215.113 E39.1488
G1 F3727.8 X209.531 Y215 E39.15727
G0 F7200 X209.712 Y214.916
;MESH:NONMESH
G0 F600 X209.712 Y214.916 Z0.3
G0 F7200 X209.531 Y215
;TIME_ELAPSED:37.615188
;LAYER:1
;note -- min layer time used
M106 S255
M204 S594
;TYPE:WALL-OUTER
;MESH:spring.stl
G1 F1480.6 X209.876 Y214.84 E39.16923
G1 F1486.5 X210.283 Y214.75 E39.18227
G1 F1495.4 X219.695 Y214.75 E39.47517
G1 F1513.6 X220.143 Y214.621 E39.4895
G1 F1529.1 X220.641 Y214.316 E39.50727
G1 F1510.6 X221.077 Y213.747 E39.52936
G1 F1498.4 X221.242 Y213.175 E39.54784
G1 F1510.6 X221.185 Y212.559 E39.5669
G1 F1522.9 X220.898 Y211.959 E39.58723
G1 F1529.1 X220.694 Y211.728 E39.59661
G1 F1535.4 X220.141 Y211.374 E39.61651
G1 F1510.6 X219.544 Y211.252 E39.63528
G1 F1468.9 X210.284 Y211.244 E39.92864
G1 F1463.2 X209.877 Y211.158 E39.94187
G1 F1468.9 X209.288 Y210.884 E39.96245
G1 F1480.6 X208.799 Y210.466 E39.98267
G1 X208.459 Y209.929 E40.00265
G1 F1463.2 X208.278 Y209.319 E40.02288
G1 F1477.7 X208.274 Y208.676 E40.04313
G1 F1492.4 X208.454 Y208.065 E40.06299
G1 F1483.5 X208.802 Y207.532 E40.08296
G1 F1468.9 X209.287 Y207.113 E40.10327
G1 X209.877 Y206.842 E40.12384
G1 F1463.2 X210.284 Y206.756 E40.13707
G1 F1474.8 X221.25 Y206.75 E40.4831
G1 F1492.4 X221.25 Y207.25 E40.49869
G1 F1486.5 X210.452 Y207.251 E40.83674
G1 F1492.4 X209.911 Y207.356 E40.85392
G1 F1513.6 X209.297 Y207.733 E40.87607
G1 F1510.6 X208.927 Y208.231 E40.89519
G1 F1498.4 X208.765 Y208.781 E40.91299
G1 F1510.6 X208.822 Y209.478 E40.93454
G1 F1526 X209.098 Y210.037 E40.95355
G1 F1522.9 X209.302 Y210.268 E40.96297
G1 F1519.8 X209.897 Y210.639 E40.98444
G1 F1498.4 X210.45 Y210.748 E41.00194
G1 F1468.9 X219.716 Y210.756 E41.29549
G1 F1466.1 X220.119 Y210.841 E41.30857
G1 F1474.8 X220.709 Y211.112 E41.32905
G1 F1480.6 X221.197 Y211.53 E41.34925
G1 X221.537 Y212.067 E41.36923
G1 F1463.2 X221.718 Y212.677 E41.38946
G1 F1477.7 X221.722 Y213.32 E41.40971
G1 F1492.4 X221.542 Y213.931 E41.42957
G1 F1486.5 X221.195 Y214.464 E41.44949
G1 F1474.8 X220.709 Y214.884 E41.46975
G1 F1477.7 X220.119 Y215.161 E41.49028
G1 F1489.5 X219.717 Y215.25 E41.50315
G1 F1492.4 X210.316 Y215.25 E41.79628
G1 F1510.6 X209.854 Y215.378 E41.81105
G1 F1522.9 X209.297 Y215.736 E41.83128
G1 F1510.6 X208.927 Y216.231 E41.85032
G1 F1498.4 X208.765 Y216.781 E41.86813
G1 F1510.6 X208.822 Y217.478 E41.88967
G1 F1526 X209.098 Y218.037 E41.90869
G1 F1522.9 X209.302 Y218.268 E41.9181
G1 F1519.8 X209.897 Y218.639 E41.93957
G1 F1498.4 X210.45 Y218.748 E41.95708
G1 F1468.9 X219.716 Y218.756 E42.25063
G1 F1466.1 X220.119 Y218.841 E42.2637
G1 F1474.8 X220.709 Y219.112 E42.28419
G1 F1480.6 X221.197 Y219.53 E42.30438
G1 X221.537 Y220.067 E42.32436
G1 F1463.2 X221.718 Y220.677 E42.3446
G1 F1477.7 X221.722 Y221.32 E42.36485
G1 F1492.4 X221.542 Y221.931 E42.38471
G1 F1486.5 X221.195 Y222.464 E42.40462
G1 F1474.8 X220.709 Y222.884 E42.42489
G1 F1477.7 X220.119 Y223.161 E42.44542
G1 F1489.5 X219.717 Y223.25 E42.45828
G1 F1492.4 X208.75 Y223.25 E42.80025
G1 X208.75 Y222.75 E42.81584
G1 F1495.4 X219.695 Y222.75 E43.15644
G1 F1513.6 X220.143 Y222.621 E43.17077
G1 F1529.1 X220.641 Y222.316 E43.18854
G1 F1510.6 X221.077 Y221.747 E43.21063
G1 F1498.4 X221.242 Y221.175 E43.22911
G1 F1510.6 X221.185 Y220.559 E43.24817
G1 F1522.9 X220.898 Y219.959 E43.2685
G1 F1529.1 X220.694 Y219.728 E43.27788
G1 F1535.4 X220.141 Y219.374 E43.29778
G1 F1510.6 X219.544 Y219.252 E43.31655
G1 F1468.9 X210.284 Y219.244 E43.60991
G1 F1463.2 X209.877 Y219.158 E43.62314
G1 F1468.9 X209.288 Y218.884 E43.64372
G1 F1480.6 X208.799 Y218.466 E43.66394
G1 X208.459 Y217.929 E43.68391
G1 F1463.2 X208.278 Y217.319 E43.70415
G1 F1477.7 X208.274 Y216.676 E43.7244
G1 F1492.4 X208.454 Y216.065 E43.74426
G1 F1480.6 X208.802 Y215.532 E43.76427
G1 F1466.1 X209.288 Y215.113 E43.78464
G1 F1471.8 X209.531 Y215 E43.79311
M204 S750
G0 F8175 X209.712 Y214.916
;MESH:NONMESH
G0 F600 X209.712 Y214.916 Z0.45
G0 F8175 X209.531 Y215
;TIME_ELAPSED:43.824875
;LAYER:2
;note -- min layer time used
M204 S688
;TYPE:WALL-OUTER
;MESH:spring.stl
G1 F1480.5 X209.876 Y214.84 E43.80507
G1 F1486.4 X210.283 Y214.75 E43.81812
G1 F1495.3 X219.695 Y214.75 E44.11101
G1 F1513.5 X220.143 Y214.621 E44.12534
G1 F1529.1 X220.641 Y214.316 E44.14311
G1 F1510.5 X221.077 Y213.747 E44.1652
G1 F1498.3 X221.242 Y213.175 E44.18369
G1 F1510.5 X221.185 Y212.559 E44.20274
G1 F1522.8 X220.898 Y211.959 E44.22307
G1 F1529.1 X220.694 Y211.728 E44.23245
G1 F1535.3 X220.141 Y211.374 E44.25235
G1 F1510.5 X219.544 Y211.252 E44.27112
G1 F1468.9 X210.284 Y211.244 E44.56448
G1 F1463.1 X209.877 Y211.158 E44.57771
G1 F1468.9 X209.288 Y210.884 E44.59829
G1 F1480.5 X208.799 Y210.466 E44.61851
G1 X208.459 Y209.929 E44.63849
G1 F1463.1 X208.278 Y209.319 E44.65872
G1 F1477.6 X208.274 Y208.676 E44.67897
G1 F1492.4 X208.454 Y208.065 E44.69884
G1 F1483.5 X208.802 Y207.532 E44.7188
G1 F1468.9 X209.287 Y207.113 E44.73911
G1 X209.877 Y206.842 E44.75968
G1 F1463.1 X210.284 Y206.756 E44.77291
G1 F1474.7 X221.25 Y206.75 E45.11894
G1 F1492.4 X221.25 Y207.25 E45.13454
G1 F1486.4 X210.452 Y207.251 E45.47258
G1 F1492.4 X209.911 Y207.356 E45.48976
G1 F1513.5 X209.297 Y207.733 E45.51191
G1 F1510.5 X208.927 Y208.231 E45.53103
G1 F1498.3 X208.765 Y208.781 E45.54883
G1 F1510.5 X208.822 Y209.478 E45.57038
G1 F1525.9 X209.098 Y210.037 E45.58939
G1 F1522.8 X209.302 Y210.268 E45.59881
G1 F1519.7 X209.897 Y210.639 E45.62028
G1 F1498.3 X210.45 Y210.748 E45.63778
G1 F1468.9 X219.716 Y210.756 E45.93133
G1 F1466 X220.119 Y210.841 E45.94441
G1 F1474.7 X220.709 Y211.112 E45.96489
G1 F1480.5 X221.197 Y211.53 E45.98509
G1 X221.537 Y212.067 E46.00507
G1 F1463.1 X221.718 Y212.677 E46.0253
G1 F1477.6 X221.722 Y213.32 E46.04555
G1 F1492.4 X221.542 Y213.931 E46.06542
G1 F1486.4 X221.195 Y214.464 E46.08533
G1 F1474.7 X220.709 Y214.884 E46.1056
G1 F1477.6 X220.119 Y215.161 E46.12612
G1 F1489.4 X219.717 Y215.25 E46.13899
G1 F1492.4 X210.316 Y215.25 E46.43212
G1 F1510.5 X209.854 Y215.378 E46.44689
G1 F1522.8 X209.297 Y215.736 E46.46713
G1 F1510.5 X208.927 Y216.231 E46.48616
G1 F1498.3 X208.765 Y216.781 E46.50397
G1 F1510.5 X208.822 Y217.478 E46.52551
G1 F1525.9 X209.098 Y218.037 E46.54453
G1 F1522.8 X209.302 Y218.268 E46.55394
G1 F1519.7 X209.897 Y218.639 E46.57541
G1 F1498.3 X210.45 Y218.748 E46.59292
G1 F1468.9 X219.716 Y218.756 E46.88647
G1 F1466 X220.119 Y218.841 E46.89954
G1 F1474.7 X220.709 Y219.112 E46.92003
G1 F1480.5 X221.197 Y219.53 E46.94023
G1 X221.537 Y220.067 E46.9602
G1 F1463.1 X221.718 Y220.677 E46.98044
G1 F1477.6 X221.722 Y221.32 E47.00069
G1 F1492.4 X221.542 Y221.931 E47.02055
G1 F1486.4 X221.195 Y222.464 E47.04046
G1 F1474.7 X220.709 Y222.884 E47.06073
G1 F1477.6 X220.119 Y223.161 E47.08126
G1 F1489.4 X219.717 Y223.25 E47.09412
G1 F1492.4 X208.75 Y223.25 E47.43609
G1 X208.75 Y222.75 E47.45168
G1 F1495.3 X219.695 Y222.75 E47.79228
G1 F1513.5 X220.143 Y222.621 E47.80661
G1 F1529.1 X220.641 Y222.316 E47.82438
G1 F1510.5 X221.077 Y221.747 E47.84647
G1 F1498.3 X221.242 Y221.175 E47.86496
G1 F1510.5 X221.185 Y220.559 E47.88401
G1 F1522.8 X220.898 Y219.959 E47.90434
G1 F1529.1 X220.694 Y219.728 E47.91372
G1 F1535.3 X220.141 Y219.374 E47.93362
G1 F1510.5 X219.544 Y219.252 E47.95239
G1 F1468.9 X210.284 Y219.244 E48.24575
G1 F1463.1 X209.877 Y219.158 E48.25898
G1 F1468.9 X209.288 Y218.884 E48.27956
G1 F1480.5 X208.799 Y218.466 E48.29978
G1 X208.459 Y217.929 E48.31976
G1 F1463.1 X208.278 Y217.319 E48.33999
G1 F1477.6 X208.274 Y216.676 E48.36024
G1 F1492.4 X208.454 Y216.065 E48.3801
G1 F1480.5 X208.802 Y215.532 E48.40011
G1 F1466 X209.288 Y215.113 E48.42048
G1 F1471.8 X209.531 Y215 E48.42895
M204 S1000
G0 F9150 X209.712 Y214.916
;MESH:NONMESH
G0 F600 X209.712 Y214.916 Z0.6
G0 F9150 X209.531 Y215
;TIME_ELAPSED:50.013384
;LAYER:3
;note -- min layer time used
M204 S781
;TYPE:WALL-OUTER
;MESH:spring.stl
G1 F1480.4 X209.876 Y214.84 E48.44091
G1 F1486.3 X210.283 Y214.75 E48.45396
G1 F1495.3 X219.695 Y214.75 E48.74685
G1 F1513.5 X220.143 Y214.621 E48.76118
G1 F1529 X220.641 Y214.316 E48.77895
G1 F1510.4 X221.077 Y213.747 E48.80104
G1 F1498.3 X221.242 Y213.175 E48.81953
G1 F1510.4 X221.185 Y212.559 E48.83859
G1 F1522.7 X220.898 Y211.959 E48.85891
G1 F1529 X220.694 Y211.728 E48.86829
G1 F1535.3 X220.141 Y211.374 E48.88819
G1 F1510.4 X219.544 Y211.252 E48.90696
G1 F1468.8 X210.284 Y211.244 E49.20032
G1 F1463 X209.877 Y211.158 E49.21355
G1 F1468.8 X209.288 Y210.884 E49.23413
G1 F1480.4 X208.799 Y210.466 E49.25435
G1 X208.459 Y209.929 E49.27433
G1 F1463 X208.278 Y209.319 E49.29456
G1 F1477.5 X208.274 Y208.676 E49.31481
G1 F1492.3 X208.454 Y208.065 E49.33468
G1 F1483.4 X208.802 Y207.532 E49.35464
G1 F1468.8 X209.287 Y207.113 E49.37495
G1 X209.877 Y206.842 E49.39552
G1 F1463 X210.284 Y206.756 E49.40875
G1 F1474.6 X221.25 Y206.75 E49.75479
G1 F1492.3 X221.25 Y207.25 E49.77038
G1 F1486.3 X210.452 Y207.251 E50.10842
G1 F1492.3 X209.911 Y207.356 E50.1256
G1 F1513.5 X209.297 Y207.733 E50.14776
G1 F1510.4 X208.927 Y208.231 E50.16687
G1 F1498.3 X208.765 Y208.781 E50.18468
G1 F1510.4 X208.822 Y209.478 E50.20622
G1 F1525.8 X209.098 Y210.037 E50.22523
G1 F1522.7 X209.302 Y210.268 E50.23465
G1 F1519.6 X209.897 Y210.639 E50.25612
G1 F1498.3 X210.45 Y210.748 E50.27362
G1 F1468.8 X219.716 Y210.756 E50.56717
G1 F1465.9 X220.119 Y210.841 E50.58025
G1 F1474.6 X220.709 Y211.112 E50.60073
G1 F1480.4 X221.197 Y211.53 E50.62093
G1 X221.537 Y212.067 E50.64091
G1 F1463 X221.718 Y212.677 E50.66114
G1 F1477.5 X221.722 Y213.32 E50.6814
G1 F1492.3 X221.542 Y213.931 E50.70126
G1 F1486.3 X221.195 Y214.464 E50.72117
G1 F1474.6 X220.709 Y214.884 E50.74144
G1 F1477.5 X220.119 Y215.161 E50.76196
G1 F1489.3 X219.717 Y215.25 E50.77483
G1 F1492.3 X210.316 Y215.25 E51.06796
G1 F1510.4 X209.854 Y215.378 E51.08273
G1 F1522.7 X209.297 Y215.736 E51.10297
G1 F1510.4 X208.927 Y216.231 E51.122
G1 F1498.3 X208.765 Y216.781 E51.13981
G1 F1510.4 X208.822 Y217.478 E51.16136
G1 F1525.8 X209.098 Y218.037 E51.18037
G1 F1522.7 X209.302 Y218.268 E51.18978
G1 F1519.6 X209.897 Y218.639 E51.21126
G1 F1498.3 X210.45 Y218.748 E51.22876
G1 F1468.8 X219.716 Y218.756 E51.52231
G1 F1465.9 X220.119 Y218.841 E51.53538
G1 F1474.6 X220.709 Y219.112 E51.55587
G1 F1480.4 X221.197 Y219.53 E51.57607
G1 X221.537 Y220.067 E51.59604
G1 F1463 X221.718 Y220.677 E51.61628
G1 F1477.5 X221.722 Y221.32 E51.63653
G1 F1492.3 X221.542 Y221.931 E51.65639
G1 F1486.3 X221.195 Y222.464 E51.6763
G1 F1474.6 X220.709 Y222.884 E51.69657
G1 F1477.5 X220.119 Y223.161 E51.7171
G1 F1489.3 X219.717 Y223.25 E51.72996
G1 F1492.3 X208.75 Y223.25 E52.07193
G1 X208.75 Y222.75 E52.08752
G1 F1495.3 X219.695 Y222.75 E52.42812
G1 F1513.5 X220.143 Y222.621 E52.44245
G1 F1529 X220.641 Y222.316 E52.46022
G1 F1510.4 X221.077 Y221.747 E52.48231
G1 F1498.3 X221.242 Y221.175 E52.5008
G1 F1510.4 X221.185 Y220.559 E52.51985
G1 F1522.7 X220.898 Y219.959 E52.54018
G1 F1529 X220.694 Y219.728 E52.54956
G1 F1535.3 X220.141 Y219.374 E52.56946
G1 F1510.4 X219.544 Y219.252 E52.58823
G1 F1468.8 X210.284 Y219.244 E52.88159
G1 F1463 X209.877 Y219.158 E52.89482
G1 F1468.8 X209.288 Y218.884 E52.9154
G1 F1480.4 X208.799 Y218.466 E52.93562
G1 X208.459 Y217.929 E52.9556
G1 F1463 X208.278 Y217.319 E52.97583
G1 F1477.5 X208.274 Y216.676 E52.99608
G1 F1492.3 X208.454 Y216.065 E53.01595
G1 F1480.4 X208.802 Y215.532 E53.03595
G1 F1465.9 X209.288 Y215.113 E53.05632
G1 F1471.7 X209.531 Y215 E53.0648
M204 S1250
G0 F10125 X209.712 Y214.916
;MESH:NONMESH
G0 F600 X209.712 Y214.916 Z0.75
G0 F10125 X209.531 Y215
;TIME_ELAPSED:56.185739
;LAYER:4
;note -- min layer time used
M204 S875
;TYPE:WALL-OUTER
;MESH:spring.stl
G1 F1480.4 X209.876 Y214.84 E53.07675
G1 F1486.3 X210.283 Y214.75 E53.0898
G1 F1495.2 X219.695 Y214.75 E53.38269
G1 F1513.4 X220.143 Y214.621 E53.39702
G1 F1528.9 X220.641 Y214.316 E53.4148
G1 F1510.3 X221.077 Y213.747 E53.43688
G1 F1498.2 X221.242 Y213.175 E53.45537
G1 F1510.3 X221.185 Y212.559 E53.47443
G1 F1522.7 X220.898 Y211.959 E53.49475
G1 F1528.9 X220.694 Y211.728 E53.50413
G1 F1535.2 X220.141 Y211.374 E53.52403
G1 F1510.3 X219.544 Y211.252 E53.5428
G1 F1468.7 X210.284 Y211.244 E53.83616
G1 F1463 X209.877 Y211.158 E53.84939
G1 F1468.7 X209.288 Y210.884 E53.86997
G1 F1480.4 X208.799 Y210.466 E53.89019
G1 X208.459 Y209.929 E53.91017
G1 F1463 X208.278 Y209.319 E53.93041
G1 F1477.4 X208.274 Y208.676 E53.95066
G1 F1492.2 X208.454 Y208.065 E53.97052
G1 F1483.3 X208.802 Y207.532 E53.99048
G1 F1468.7 X209.287 Y207.113 E54.01079
G1 X209.877 Y206.842 E54.03136
G1 F1463 X210.284 Y206.756 E54.04459
G1 F1474.5 X221.25 Y206.75 E54.39063
G1 F1492.2 X221.25 Y207.25 E54.40622
G1 F1486.3 X210.452 Y207.251 E54.74426
G1 F1492.2 X209.911 Y207.356 E54.76144
G1 F1513.4 X209.297 Y207.733 E54.7836
G1 F1510.3 X208.927 Y208.231 E54.80271
G1 F1498.2 X208.765 Y208.781 E54.82052
G1 F1510.3 X208.822 Y209.478 E54.84206
G1 F1525.8 X209.098 Y210.037 E54.86107
G1 F1522.7 X209.302 Y210.268 E54.87049
G1 F1519.6 X209.897 Y210.639 E54.89196
G1 F1498.2 X210.45 Y210.748 E54.90946
G1 F1468.7 X219.716 Y210.756 E55.20301
G1 F1465.8 X220.119 Y210.841 E55.21609
G1 F1474.5 X220.709 Y211.112 E55.23658
G1 F1480.4 X221.197 Y211.53 E55.25677
G1 X221.537 Y212.067 E55.27675
G1 F1463 X221.718 Y212.677 E55.29699
G1 F1477.4 X221.722 Y213.32 E55.31724
G1 F1492.2 X221.542 Y213.931 E55.3371
G1 F1486.3 X221.195 Y214.464 E55.35701
G1 F1474.5 X220.709 Y214.884 E55.37728
G1 F1477.4 X220.119 Y215.161 E55.3978
G1 F1489.2 X219.717 Y215.25 E55.41067
G1 F1492.2 X210.316 Y215.25 E55.7038
G1 F1510.3 X209.854 Y215.378 E55.71857
G1 F1522.7 X209.297 Y215.736 E55.73881
G1 F1510.3 X208.927 Y216.231 E55.75785
G1 F1498.2 X208.765 Y216.781 E55.77565
G1 F1510.3 X208.822 Y217.478 E55.7972
G1 F1525.8 X209.098 Y218.037 E55.81621
G1 F1522.7 X209.302 Y218.268 E55.82563
G1 F1519.6 X209.897 Y218.639 E55.8471
G1 F1498.2 X210.45 Y218.748 E55.8646
G1 F1468.7 X219.716 Y218.756 E56.15815
G1 F1465.8 X220.119 Y218.841 E56.17122
G1 F1474.5 X220.709 Y219.112 E56.19171
G1 F1480.4 X221.197 Y219.53 E56.21191
G1 X221.537 Y220.067 E56.23189
G1 F1463 X221.718 Y220.677 E56.25212
G1 F1477.4 X221.722 Y221.32 E56.27237
G1 F1492.2 X221.542 Y221.931 E56.29223
G1 F1486.3 X221.195 Y222.464 E56.31214
G1 F1474.5 X220.709 Y222.884 E56.33241
G1 F1477.4 X220.119 Y223.161 E56.35294
G1 F1489.2 X219.717 Y223.25 E56.36581
G1 F1492.2 X208.75 Y223.25 E56.70777
G1 X208.75 Y222.75 E56.72336
G1 F1495.2 X219.695 Y222.75 E57.06396
G1 F1513.4 X220.143 Y222.621 E57.07829
G1 F1528.9 X220.641 Y222.316 E57.09606
G1 F1510.3 X221.077 Y221.747 E57.11815
G1 F1498.2 X221.242 Y221.175 E57.13664
G1 F1510.3 X221.185 Y220.559 E57.1557
G1 F1522.7 X220.898 Y219.959 E57.17602
G1 F1528.9 X220.694 Y219.728 E57.1854
G1 F1535.2 X220.141 Y219.374 E57.2053
G1 F1510.3 X219.544 Y219.252 E57.22407
G1 F1468.7 X210.284 Y219.244 E57.51743
G1 F1463 X209.877 Y219.158 E57.53066
G1 F1468.7 X209.288 Y218.884 E57.55124
G1 F1480.4 X208.799 Y218.466 E57.57146
G1 X208.459 Y217.929 E57.59144
G1 F1463 X208.278 Y217.319 E57.61168
G1 F1477.4 X208.274 Y216.676 E57.63193
G1 F1492.2 X208.454 Y216.065 E57.65179
G1 F1480.4 X208.802 Y215.532 E57.67179
G1 F1465.8 X209.288 Y215.113 E57.69216
G1 F1471.6 X209.531 Y215 E57.70064
M204 S1500
G0 F11100 X209.712 Y214.916
;MESH:NONMESH
G0 F600 X209.712 Y214.916 Z0.9
G0 F11100 X209.531 Y215
;TIME_ELAPSED:62.345216
;LAYER:5
;note -- min layer time used
M204 S969
;TYPE:WALL-OUTER
;MESH:spring.stl
G1 F1480.3 X209.876 Y214.84 E57.71259
G1 F1486.2 X210.283 Y214.75 E57.72564
G1 F1495.2 X219.695 Y214.75 E58.01853
G1 F1513.4 X220.143 Y214.621 E58.03286
G1 F1528.9 X220.641 Y214.316 E58.05064
G1 F1510.3 X221.077 Y213.747 E58.07272
G1 F1498.2 X221.242 Y213.175 E58.09121
G1 F1510.3 X221.185 Y212.559 E58.11027
G1 F1522.6 X220.898 Y211.959 E58.13059
G1 F1528.9 X220.694 Y211.728 E58.13997
G1 F1535.1 X220.141 Y211.374 E58.15987
G1 F1510.3 X219.544 Y211.252 E58.17864
G1 F1468.7 X210.284 Y211.244 E58.472
G1 F1462.9 X209.877 Y211.158 E58.48523
G1 F1468.7 X209.288 Y210.884 E58.50581
G1 F1480.3 X208.799 Y210.466 E58.52603
G1 X208.459 Y209.929 E58.54601
G1 F1462.9 X208.278 Y209.319 E58.56625
G1 F1477.4 X208.274 Y208.676 E58.5865
G1 F1492.2 X208.454 Y208.065 E58.60636
G1 F1483.3 X208.802 Y207.532 E58.62633
G1 F1468.7 X209.287 Y207.113 E58.64663
G1 X209.877 Y206.842 E58.6672
G1 F1462.9 X210.284 Y206.756 E58.68043
G1 F1474.5 X221.25 Y206.75 E59.02647
G1 F1492.2 X221.25 Y207.25 E59.04206
G1 F1486.2 X210.452 Y207.251 E59.3801
G1 F1492.2 X209.911 Y207.356 E59.39729
G1 F1513.4 X209.297 Y207.733 E59.41944
G1 F1510.3 X208.927 Y208.231 E59.43855
G1 F1498.2 X208.765 Y208.781 E59.45636
G1 F1510.3 X208.822 Y209.478 E59.4779
G1 F1525.7 X209.098 Y210.037 E59.49691
G1 F1522.6 X209.302 Y210.268 E59.50633
G1 F1519.5 X209.897 Y210.639 E59.5278
G1 F1498.2 X210.45 Y210.748 E59.54531
G1 F1468.7 X219.716 Y210.756 E59.83886
G1 F1465.8 X220.119 Y210.841 E59.85193
G1 F1474.5 X220.709 Y211.112 E59.87242
G1 F1480.3 X221.197 Y211.53 E59.89261
G1 X221.537 Y212.067 E59.91259
G1 F1462.9 X221.718 Y212.677 E59.93283
G1 F1477.4 X221.722 Y213.32 E59.95308
G1 F1492.2 X221.542 Y213.931 E59.97294
G1 F1486.2 X221.195 Y214.464 E59.99285
G1 F1474.5 X220.709 Y214.884 E60.01312
G1 F1477.4 X220.119 Y215.161 E60.03365
G1 F1489.2 X219.717 Y215.25 E60.04651
G1 F1492.2 X210.316 Y215.25 E60.33965
G1 F1510.3 X209.854 Y215.378 E60.35441
G1 F1522.6 X209.297 Y215.736 E60.37465
G1 F1510.3 X208.927 Y216.231 E60.39369
G1 F1498.2 X208.765 Y216.781 E60.41149
G1 F1510.3 X208.822 Y217.478 E60.43304
G1 F1525.7 X209.098 Y218.037 E60.45205
G1 F1522.6 X209.302 Y218.268 E60.46147
G1 F1519.5 X209.897 Y218.639 E60.48294
G1 F1498.2 X210.45 Y218.748 E60.50044
G1 F1468.7 X219.716 Y218.756 E60.79399
G1 F1465.8 X220.119 Y218.841 E60.80707
G1 F1474.5 X220.709 Y219.112 E60.82755
G1 F1480.3 X221.197 Y219.53 E60.84775
G1 X221.537 Y220.067 E60.86773
G1 F1462.9 X221.718 Y220.677 E60.88796
G1 F1477.4 X221.722 Y221.32 E60.90821
G1 F1492.2 X221.542 Y221.931 E60.92807
G1 F1486.2 X221.195 Y222.464 E60.94799
G1 F1474.5 X220.709 Y222.884 E60.96825
G1 F1477.4 X220.119 Y223.161 E60.98878
G1 F1489.2 X219.717 Y223.25 E61.00165
G1 F1492.2 X208.75 Y223.25 E61.34361
G1 X208.75 Y222.75 E61.3592
G1 F1495.2 X219.695 Y222.75 E61.6998
G1 F1513.4 X220.143 Y222.621 E61.71413
G1 F1528.9 X220.641 Y222.316 E61.73191
G1 F1510.3 X221.077 Y221.747 E61.75399
G1 F1498.2 X221.242 Y221.175 E61.77248
G1 F1510.3 X221.185 Y220.559 E61.79154
G1 F1522.6 X220.898 Y219.959 E61.81186
G1 F1528.9 X220.694 Y219.728 E61.82124
G1 F1535.1 X220.141 Y219.374 E61.84114
G1 F1510.3 X219.544 Y219.252 E61.85991
G1 F1468.7 X210.284 Y219.244 E62.15327
G1 F1462.9 X209.877 Y219.158 E62.1665
G1 F1468.7 X209.288 Y218.884 E62.18708
G1 F1480.3 X208.799 Y218.466 E62.2073
G1 X208.459 Y217.929 E62.22728
G1 F1462.9 X208.278 Y217.319 E62.24752
G1 F1477.4 X208.274 Y216.676 E62.26777
G1 F1492.2 X208.454 Y216.065 E62.28763
G1 F1480.3 X208.802 Y215.532 E62.30764
G1 F1465.8 X209.288 Y215.113 E62.328
G1 F1471.6 X209.531 Y215 E62.33648
M204 S1750
G0 F12075 X209.712 Y214.916
;MESH:NONMESH
G0 F600 X209.712 Y214.916 Z1.05
G0 F12075 X209.531 Y215
;TIME_ELAPSED:68.494136
;LAYER:6
;note -- min layer time used
M204 S1062
;TYPE:WALL-OUTER
;MESH:spring.stl
G1 F1480.3 X209.876 Y214.84 E62.34843
G1 F1486.2 X210.283 Y214.75 E62.36148
G1 F1495.1 X219.695 Y214.75 E62.65437
G1 F1513.3 X220.143 Y214.621 E62.66871
G1 F1528.8 X220.641 Y214.316 E62.68648
G1 F1510.2 X221.077 Y213.747 E62.70856
G1 F1498.1 X221.242 Y213.175 E62.72705
G1 F1510.2 X221.185 Y212.559 E62.74611
G1 F1522.6 X220.898 Y211.959 E62.76643
G1 F1528.8 X220.694 Y211.728 E62.77581
G1 F1535.1 X220.141 Y211.374 E62.79571
G1 F1510.2 X219.544 Y211.252 E62.81448
G1 F1468.6 X210.284 Y211.244 E63.10784
G1 F1462.9 X209.877 Y211.158 E63.12107
G1 F1468.6 X209.288 Y210.884 E63.14165
G1 F1480.3 X208.799 Y210.466 E63.16187
G1 X208.459 Y209.929 E63.18185
G1 F1462.9 X208.278 Y209.319 E63.20209
G1 F1477.3 X208.274 Y208.676 E63.22234
G1 F1492.1 X208.454 Y208.065 E63.2422
G1 F1483.2 X208.802 Y207.532 E63.26217
G1 F1468.6 X209.287 Y207.113 E63.28247
G1 X209.877 Y206.842 E63.30304
G1 F1462.9 X210.284 Y206.756 E63.31627
G1 F1474.4 X221.25 Y206.75 E63.66231
G1 F1492.1 X221.25 Y207.25 E63.6779
G1 F1486.2 X210.452 Y207.251 E64.01594
G1 F1492.1 X209.911 Y207.356 E64.03313
G1 F1513.3 X209.297 Y207.733 E64.05528
G1 F1510.2 X208.927 Y208.231 E64.07439
G1 F1498.1 X208.765 Y208.781 E64.0922
G1 F1510.2 X208.822 Y209.478 E64.11374
G1 F1525.7 X209.098 Y210.037 E64.13275
G1 F1522.6 X209.302 Y210.268 E64.14217
G1 F1519.5 X209.897 Y210.639 E64.16364
G1 F1498.1 X210.45 Y210.748 E64.18115
G1 F1468.6 X219.716 Y210.756 E64.4747
G1 F1465.7 X220.119 Y210.841 E64.48777
G1 F1474.4 X220.709 Y211.112 E64.50826
G1 F1480.3 X221.197 Y211.53 E64.52845
G1 X221.537 Y212.067 E64.54843
G1 F1462.9 X221.718 Y212.677 E64.56867
G1 F1477.3 X221.722 Y213.32 E64.58892
G1 F1492.1 X221.542 Y213.931 E64.60878
G1 F1486.2 X221.195 Y214.464 E64.62869
G1 F1474.4 X220.709 Y214.884 E64.64896
G1 F1477.3 X220.119 Y215.161 E64.66949
G1 F1489.1 X219.717 Y215.25 E64.68235
G1 F1492.1 X210.316 Y215.25 E64.97549
G1 F1510.2 X209.854 Y215.378 E64.99026
G1 F1522.6 X209.297 Y215.736 E65.01049
G1 F1510.2 X208.927 Y216.231 E65.02953
G1 F1498.1 X208.765 Y216.781 E65.04733
G1 F1510.2 X208.822 Y217.478 E65.06888
G1 F1525.7 X209.098 Y218.037 E65.08789
G1 F1522.6 X209.302 Y218.268 E65.09731
G1 F1519.5 X209.897 Y218.639 E65.11878
G1 F1498.1 X210.45 Y218.748 E65.13628
G1 F1468.6 X219.716 Y218.756 E65.42983
G1 F1465.7 X220.119 Y218.841 E65.44291
G1 F1474.4 X220.709 Y219.112 E65.46339
G1 F1480.3 X221.197 Y219.53 E65.48359
G1 X221.537 Y220.067 E65.50357
G1 F1462.9 X221.718 Y220.677 E65.5238
G1 F1477.3 X221.722 Y221.32 E65.54405
G1 F1492.1 X221.542 Y221.931 E65.56392
G1 F1486.2 X221.195 Y222.464 E65.58383
G1 F1474.4 X220.709 Y222.884 E65.6041
G1 F1477.3 X220.119 Y223.161 E65.62462
G1 F1489.1 X219.717 Y223.25 E65.63749
G1 F1492.1 X208.75 Y223.25 E65.97945
G1 X208.75 Y222.75 E65.99504
G1 F1495.1 X219.695 Y222.75 E66.33564
G1 F1513.3 X220.143 Y222.621 E66.34997
G1 F1528.8 X220.641 Y222.316 E66.36775
G1 F1510.2 X221.077 Y221.747 E66.38983
G1 F1498.1 X221.242 Y221.175 E66.40832
G1 F1510.2 X221.185 Y220.559 E66.42738
G1 F1522.6 X220.898 Y219.959 E66.4477
G1 F1528.8 X220.694 Y219.728 E66.45708
G1 F1535.1 X220.141 Y219.374 E66.47698
G1 F1510.2 X219.544 Y219.252 E66.49575
G1 F1468.6 X210.284 Y219.244 E66.78911
G1 F1462.9 X209.877 Y219.158 E66.80234
G1 F1468.6 X209.288 Y218.884 E66.82292
G1 F1480.3 X208.799 Y218.466 E66.84314
G1 X208.459 Y217.929 E66.86312
G1 F1462.9 X208.278 Y217.319 E66.88336
G1 F1477.3 X208.274 Y216.676 E66.90361
G1 F1492.1 X208.454 Y216.065 E66.92347
G1 F1480.3 X208.802 Y215.532 E66.94348
G1 F1465.7 X209.288 Y215.113 E66.96384
G1 F1471.5 X209.531 Y215 E66.97232
M204 S2000
G0 F13050 X209.712 Y214.916
;MESH:NONMESH
G0 F600 X209.712 Y214.916 Z1.2
G0 F13050 X209.531 Y215
;TIME_ELAPSED:74.634451
;LAYER:7
;note -- min layer time used
M204 S1156
;TYPE:WALL-OUTER
;MESH:spring.stl
G1 F1480.2 X209.876 Y214.84 E66.98427
G1 F1486.1 X210.283 Y214.75 E66.99732
G1 F1495.1 X219.695 Y214.75 E67.29021
G1 F1513.3 X220.143 Y214.621 E67.30455
G1 F1528.8 X220.641 Y214.316 E67.32232
G1 F1510.2 X221.077 Y213.747 E67.3444
G1 F1498.1 X221.242 Y213.175 E67.36289
G1 F1510.2 X221.185 Y212.559 E67.38195
G1 F1522.5 X220.898 Y211.959 E67.40227
G1 F1528.8 X220.694 Y211.728 E67.41165
G1 F1535.1 X220.141 Y211.374 E67.43155
G1 F1510.2 X219.544 Y211.252 E67.45032
G1 F1468.6 X210.284 Y211.244 E67.74368
G1 F1462.8 X209.877 Y211.158 E67.75691
G1 F1468.6 X209.288 Y210.884 E67.77749
G1 F1480.2 X208.799 Y210.466 E67.79771
G1 X208.459 Y209.929 E67.81769
G1 F1462.8 X208.278 Y209.319 E67.83793
G1 F1477.3 X208.274 Y208.676 E67.85818
G1 F1492.1 X208.454 Y208.065 E67.87804
G1 F1483.2 X208.802 Y207.532 E67.89801
G1 F1468.6 X209.287 Y207.113 E67.91831
G1 X209.877 Y206.842 E67.93888
G1 F1462.8 X210.284 Y206.756 E67.95211
G1 F1474.4 X221.25 Y206.75 E68.29815
G1 F1492.1 X221.25 Y207.25 E68.31374
G1 F1486.1 X210.452 Y207.251 E68.65178
G1 F1492.1 X209.911 Y207.356 E68.66897
G1 F1513.3 X209.297 Y207.733 E68.69112
G1 F1510.2 X208.927 Y208.231 E68.71023
G1 F1498.1 X208.765 Y208.781 E68.72804
G1 F1510.2 X208.822 Y209.478 E68.74958
G1 F1525.6 X209.098 Y210.037 E68.7686
G1 F1522.5 X209.302 Y210.268 E68.77801
G1 F1519.4 X209.897 Y210.639 E68.79948
G1 F1498.1 X210.45 Y210.748 E68.81699
G1 F1468.6 X219.716 Y210.756 E69.11054
G1 F1465.7 X220.119 Y210.841 E69.12361
G1 F1474.4 X220.709 Y211.112 E69.1441
G1 F1480.2 X221.197 Y211.53 E69.16429
G1 X221.537 Y212.067 E69.18427
G1 F1462.8 X221.718 Y212.677 E69.20451
G1 F1477.3 X221.722 Y213.32 E69.22476
G1 F1492.1 X221.542 Y213.931 E69.24462
G1 F1486.1 X221.195 Y214.464 E69.26453
G1 F1474.4 X220.709 Y214.884 E69.2848
G1 F1477.3 X220.119 Y215.161 E69.30533
G1 F1489.1 X219.717 Y215.25 E69.31819
G1 F1492.1 X210.316 Y215.25 E69.61133
G1 F1510.2 X209.854 Y215.378 E69.6261
G1 F1522.5 X209.297 Y215.736 E69.64633
G1 F1510.2 X208.927 Y216.231 E69.66537
G1 F1498.1 X208.765 Y216.781 E69.68318
G1 F1510.2 X208.822 Y217.478 E69.70472
G1 F1525.6 X209.098 Y218.037 E69.72373
G1 F1522.5 X209.302 Y218.268 E69.73315
G1 F1519.4 X209.897 Y218.639 E69.75462
G1 F1498.1 X210.45 Y218.748 E69.77212
G1 F1468.6 X219.716 Y218.756 E70.06567
G1 F1465.7 X220.119 Y218.841 E70.07875
G1 F1474.4 X220.709 Y219.112 E70.09924
G1 F1480.2 X221.197 Y219.53 E70.11943
G1 X221.537 Y220.067 E70.13941
G1 F1462.8 X221.718 Y220.677 E70.15965
G1 F1477.3 X221.722 Y221.32 E70.1799
G1 F1492.1 X221.542 Y221.931 E70.19976
G1 F1486.1 X221.195 Y222.464 E70.21967
G1 F1474.4 X220.709 Y222.884 E70.23994
G1 F1477.3 X220.119 Y223.161 E70.26046
G1 F1489.1 X219.717 Y223.25 E70.27333
G1 F1492.1 X208.75 Y223.25 E70.61529
G1 X208.75 Y222.75 E70.63088
G1 F1495.1 X219.695 Y222.75 E70.97148
G1 F1513.3 X220.143 Y222.621 E70.98582
G1 F1528.8 X220.641 Y222.316 E71.00359
G1 F1510.2 X221.077 Y221.747 E71.02567
G1 F1498.1 X221.242 Y221.175 E71.04416
G1 F1510.2 X221.185 Y220.559 E71.06322
G1 F1522.5 X220.898 Y219.959 E71.08354
G1 F1528.8 X220.694 Y219.728 E71.09292
G1 F1535.1 X220.141 Y219.374 E71.11282
G1 F1510.2 X219.544 Y219.252 E71.13159
G1 F1468.6 X210.284 Y219.244 E71.42495
G1 F1462.8 X209.877 Y219.158 E71.43818
G1 F1468.6 X209.288 Y218.884 E71.45876
G1 F1480.2 X208.799 Y218.466 E71.47898
G1 X208.459 Y217.929 E71.49896
G1 F1462.8 X208.278 Y217.319 E71.5192
G1 F1477.3 X208.274 Y216.676 E71.53945
G1 F1492.1 X208.454 Y216.065 E71.55931
G1 F1480.2 X208.802 Y215.532 E71.57932
G1 F1465.7 X209.288 Y215.113 E71.59969
G1 F1471.5 X209.531 Y215 E71.60816
M204 S2250
G0 F14025 X209.712 Y214.916
;MESH:NONMESH
G0 F600 X209.712 Y214.916 Z1.35
G0 F14025 X209.531 Y215
;TIME_ELAPSED:80.767405
;LAYER:8
;note -- min layer time used
M204 S1250
;TYPE:WALL-OUTER
;MESH:spring.stl
G1 F1480.2 X209.876 Y214.84 E71.62011
G1 F1486.1 X210.283 Y214.75 E71.63316
G1 F1495 X219.695 Y214.75 E71.92605
G1 F1513.2 X220.143 Y214.621 E71.94039
G1 F1528.7 X220.641 Y214.316 E71.95816
G1 F1510.2 X221.077 Y213.747 E71.98024
G1 F1498 X221.242 Y213.175 E71.99873
G1 F1510.2 X221.185 Y212.559 E72.01779
G1 F1522.5 X220.898 Y211.959 E72.03811
G1 F1528.7 X220.694 Y211.728 E72.04749
G1 F1535 X220.141 Y211.374 E72.06739
G1 F1510.2 X219.544 Y211.252 E72.08617
G1 F1468.6 X210.284 Y211.244 E72.37953
G1 F1462.8 X209.877 Y211.158 E72.39276
G1 F1468.6 X209.288 Y210.884 E72.41334
G1 F1480.2 X208.799 Y210.466 E72.43356
G1 X208.459 Y209.929 E72.45353
G1 F1462.8 X208.278 Y209.319 E72.47377
G1 F1477.3 X208.274 Y208.676 E72.49402
G1 F1492 X208.454 Y208.065 E72.51388
G1 F1483.2 X208.802 Y207.532 E72.53385
G1 F1468.6 X209.287 Y207.113 E72.55415
G1 X209.877 Y206.842 E72.57472
G1 F1462.8 X210.284 Y206.756 E72.58795
G1 F1474.4 X221.25 Y206.75 E72.93399
G1 F1492 X221.25 Y207.25 E72.94958
G1 F1486.1 X210.452 Y207.251 E73.28762
G1 F1492 X209.911 Y207.356 E73.30481
G1 F1513.2 X209.297 Y207.733 E73.32696
G1 F1510.2 X208.927 Y208.231 E73.34607
G1 F1498 X208.765 Y208.781 E73.36388
G1 F1510.2 X208.822 Y209.478 E73.38542
G1 F1525.6 X209.098 Y210.037 E73.40444
G1 F1522.5 X209.302 Y210.268 E73.41385
G1 F1519.4 X209.897 Y210.639 E73.43532
G1 F1498 X210.45 Y210.748 E73.45283
G1 F1468.6 X219.716 Y210.756 E73.74638
G1 F1465.7 X220.119 Y210.841 E73.75945
G1 F1474.4 X220.709 Y211.112 E73.77994
G1 F1480.2 X221.197 Y211.53 E73.80014
G1 X221.537 Y212.067 E73.82011
G1 F1462.8 X221.718 Y212.677 E73.84035
G1 F1477.3 X221.722 Y213.32 E73.8606
G1 F1492 X221.542 Y213.931 E73.88046
G1 F1486.1 X221.195 Y214.464 E73.90037
G1 F1474.4 X220.709 Y214.884 E73.92064
G1 F1477.3 X220.119 Y215.161 E73.94117
G1 F1489.1 X219.717 Y215.25 E73.95403
G1 F1492 X210.316 Y215.25 E74.24717
G1 F1510.2 X209.854 Y215.378 E74.26194
G1 F1522.5 X209.297 Y215.736 E74.28217
G1 F1510.2 X208.927 Y216.231 E74.30121
G1 F1498 X208.765 Y216.781 E74.31902
G1 F1510.2 X208.822 Y217.478 E74.34056
G1 F1525.6 X209.098 Y218.037 E74.35957
G1 F1522.5 X209.302 Y218.268 E74.36899
G1 F1519.4 X209.897 Y218.639 E74.39046
G1 F1498 X210.45 Y218.748 E74.40797
G1 F1468.6 X219.716 Y218.756 E74.70151
G1 F1465.7 X220.119 Y218.841 E74.71459
G1 F1474.4 X220.709 Y219.112 E74.73508
G1 F1480.2 X221.197 Y219.53 E74.75527
G1 X221.537 Y220.067 E74.77525
G1 F1462.8 X221.718 Y220.677 E74.79549
G1 F1477.3 X221.722 Y221.32 E74.81574
G1 F1492 X221.542 Y221.931 E74.8356
G1 F1486.1 X221.195 Y222.464 E74.85551
G1 F1474.4 X220.709 Y222.884 E74.87578
G1 F1477.3 X220.119 Y223.161 E74.8963
G1 F1489.1 X219.717 Y223.25 E74.90917
G1 F1492 X208.75 Y223.25 E75.25114
G1 X208.75 Y222.75 E75.26673
G1 F1495 X219.695 Y222.75 E75.60732
G1 F1513.2 X220.143 Y222.621 E75.62166
G1 F1528.7 X220.641 Y222.316 E75.63943
G1 F1510.2 X221.077 Y221.747 E75.66151
G1 F1498 X221.242 Y221.175 E75.68
G1 F1510.2 X221.185 Y220.559 E75.69906
G1 F1522.5 X220.898 Y219.959 E75.71938
G1 F1528.7 X220.694 Y219.728 E75.72876
G1 F1535 X220.141 Y219.374 E75.74866
G1 F1510.2 X219.544 Y219.252 E75.76744
G1 F1468.6 X210.284 Y219.244 E76.06079
G1 F1462.8 X209.877 Y219.158 E76.07403
G1 F1468.6 X209.288 Y218.884 E76.09461
G1 F1480.2 X208.799 Y218.466 E76.11483
G1 X208.459 Y217.929 E76.1348
G1 F1462.8 X208.278 Y217.319 E76.15504
G1 F1477.3 X208.274 Y216.676 E76.17529
G1 F1492 X208.454 Y216.065 E76.19515
G1 F1480.2 X208.802 Y215.532 E76.21516
G1 F1465.7 X209.288 Y215.113 E76.23553
G1 F1471.4 X209.531 Y215 E76.244
M204 S2500
G0 F15000 X209.712 Y214.916
;MESH:NONMESH
G0 F600 X209.712 Y214.916 Z1.5
G0 F15000 X209.531 Y215
;TIME_ELAPSED:86.894012
;LAYER:9
;note -- min layer time used
M204 S1250
;TYPE:WALL-OUTER
;MESH:spring.stl
G1 F1480.2 X209.876 Y214.84 E76.25595
G1 F1486.1 X210.283 Y214.75 E76.269
G1 F1495 X219.695 Y214.75 E76.56189
G1 F1513.2 X220.143 Y214.621 E76.57623
G1 F1528.7 X220.641 Y214.316 E76.594
G1 F1510.2 X221.077 Y213.747 E76.61608
G1 F1498 X221.242 Y213.175 E76.63457
G1 F1510.2 X221.185 Y212.559 E76.65363
G1 F1522.5 X220.898 Y211.959 E76.67396
G1 F1528.7 X220.694 Y211.728 E76.68333
G1 F1535 X220.141 Y211.374 E76.70323
G1 F1510.2 X219.544 Y211.252 E76.72201
G1 F1468.6 X210.284 Y211.244 E77.01537
G1 F1462.8 X209.877 Y211.158 E77.0286
G1 F1468.6 X209.288 Y210.884 E77.04918
G1 F1480.2 X208.799 Y210.466 E77.0694
G1 X208.459 Y209.929 E77.08937
G1 F1462.8 X208.278 Y209.319 E77.10961
G1 F1477.3 X208.274 Y208.676 E77.12986
G1 F1492 X208.454 Y208.065 E77.14972
G1 F1483.2 X208.802 Y207.532 E77.16969
G1 F1468.6 X209.287 Y207.113 E77.18999
G1 X209.877 Y206.842 E77.21056
G1 F1462.8 X210.284 Y206.756 E77.22379
G1 F1474.4 X221.25 Y206.75 E77.56983
G1 F1492 X221.25 Y207.25 E77.58542
G1 F1486.1 X210.452 Y207.251 E77.92347
G1 F1492 X209.911 Y207.356 E77.94065
G1 F1513.2 X209.297 Y207.733 E77.9628
G1 F1510.2 X208.927 Y208.231 E77.98191
G1 F1498 X208.765 Y208.781 E77.99972
G1 F1510.2 X208.822 Y209.478 E78.02127
G1 F1525.6 X209.098 Y210.037 E78.04028
G1 F1522.5 X209.302 Y210.268 E78.04969
G1 F1519.4 X209.897 Y210.639 E78.07117
G1 F1498 X210.45 Y210.748 E78.08867
G1 F1468.6 X219.716 Y210.756 E78.38222
G1 F1465.7 X220.119 Y210.841 E78.39529
G1 F1474.4 X220.709 Y211.112 E78.41578
G1 F1480.2 X221.197 Y211.53 E78.43598
G1 X221.537 Y212.067 E78.45595
G1 F1462.8 X221.718 Y212.677 E78.47619
G1 F1477.3 X221.722 Y213.32 E78.49644
G1 F1492 X221.542 Y213.931 E78.5163
G1 F1486.1 X221.195 Y214.464 E78.53621
G1 F1474.4 X220.709 Y214.884 E78.55648
G1 F1477.3 X220.119 Y215.161 E78.57701
G1 F1489.1 X219.717 Y215.25 E78.58987
G1 F1492 X210.316 Y215.25 E78.88301
G1 F1510.2 X209.854 Y215.378 E78.89778
G1 F1522.5 X209.297 Y215.736 E78.91801
G1 F1510.2 X208.927 Y216.231 E78.93705
G1 F1498 X208.765 Y216.781 E78.95486
G1 F1510.2 X208.822 Y217.478 E78.9764
G1 F1525.6 X209.098 Y218.037 E78.99541
G1 F1522.5 X209.302 Y218.268 E79.00483
G1 F1519.4 X209.897 Y218.639 E79.0263
G1 F1498 X210.45 Y218.748 E79.04381
G1 F1468.6 X219.716 Y218.756 E79.33736
G1 F1465.7 X220.119 Y218.841 E79.35043
G1 F1474.4 X220.709 Y219.112 E79.37092
G1 F1480.2 X221.197 Y219.53 E79.39111
G1 X221.537 Y220.067 E79.41109
G1 F1462.8 X221.718 Y220.677 E79.43133
G1 F1477.3 X221.722 Y221.32 E79.45158
G1 F1492 X221.542 Y221.931 E79.47144
G1 F1486.1 X221.195 Y222.464 E79.49135
G1 F1474.4 X220.709 Y222.884 E79.51162
G1 F1477.3 X220.119 Y223.161 E79.53215
G1 F1489.1 X219.717 Y223.25 E79.54501
G1 F1492 X208.75 Y223.25 E79.88698
G1 X208.75 Y222.75 E79.90257
G1 F1495 X219.695 Y222.75 E80.24316
G1 F1513.2 X220.143 Y222.621 E80.2575
G1 F1528.7 X220.641 Y222.316 E80.27527
G1 F1510.2 X221.077 Y221.747 E80.29735
G1 F1498 X221.242 Y221.175 E80.31584
G1 F1510.2 X221.185 Y220.559 E80.3349
G1 F1522.5 X220.898 Y219.959 E80.35523
G1 F1528.7 X220.694 Y219.728 E80.3646
G1 F1535 X220.141 Y219.374 E80.3845
G1 F1510.2 X219.544 Y219.252 E80.40328
G1 F1468.6 X210.284 Y219.244 E80.69664
G1 F1462.8 X209.877 Y219.158 E80.70987
G1 F1468.6 X209.288 Y218.884 E80.73045
G1 F1480.2 X208.799 Y218.466 E80.75067
G1 X208.459 Y217.929 E80.77064
G1 F1462.8 X208.278 Y217.319 E80.79088
G1 F1477.3 X208.274 Y216.676 E80.81113
G1 F1492 X208.454 Y216.065 E80.83099
G1 F1480.2 X208.802 Y215.532 E80.851
G1 F1465.7 X209.288 Y215.113 E80.87137
G1 F1471.4 X209.531 Y215 E80.87984
M204 S2500
G0 F15000 X209.712 Y214.916
;MESH:NONMESH
G0 F600 X209.712 Y214.916 Z1.65
G0 F15000 X209.531 Y215
;TIME_ELAPSED:93.020618
;LAYER:10
;note -- min layer time used
M204 S1250
;TYPE:WALL-OUTER
;MESH:spring.stl
G1 F1480.2 X209.876 Y214.84 E80.89179
G1 F1486.1 X210.283 Y214.75 E80.90484
G1 F1495 X219.695 Y214.75 E81.19774
G1 F1513.2 X220.143 Y214.621 E81.21207
G1 F1528.7 X220.641 Y214.316 E81.22984
G1 F1510.2 X221.077 Y213.747 E81.25193
G1 F1498 X221.242 Y213.175 E81.27041
G1 F1510.2 X221.185 Y212.559 E81.28947
G1 F1522.5 X220.898 Y211.959 E81.3098
G1 F1528.7 X220.694 Y211.728 E81.31918
G1 F1535 X220.141 Y211.374 E81.33908
G1 F1510.2 X219.544 Y211.252 E81.35785
G1 F1468.6 X210.284 Y211.244 E81.65121
G1 F1462.8 X209.877 Y211.158 E81.66444
G1 F1468.6 X209.288 Y210.884 E81.68502
G1 F1480.2 X208.799 Y210.466 E81.70524
G1 X208.459 Y209.929 E81.72521
G1 F1462.8 X208.278 Y209.319 E81.74545
G1 F1477.3 X208.274 Y208.676 E81.7657
G1 F1492 X208.454 Y208.065 E81.78556
G1 F1483.2 X208.802 Y207.532 E81.80553
G1 F1468.6 X209.287 Y207.113 E81.82584
G1 X209.877 Y206.842 E81.8464
G1 F1462.8 X210.284 Y206.756 E81.85963
G1 F1474.4 X221.25 Y206.75 E82.20567
G1 F1492 X221.25 Y207.25 E82.22126
G1 F1486.1 X210.452 Y207.251 E82.55931
G1 F1492 X209.911 Y207.356 E82.57649
G1 F1513.2 X209.297 Y207.733 E82.59864
G1 F1510.2 X208.927 Y208.231 E82.61776
G1 F1498 X208.765 Y208.781 E82.63556
G1 F1510.2 X208.822 Y209.478 E82.65711
G1 F1525.6 X209.098 Y210.037 E82.67612
G1 F1522.5 X209.302 Y210.268 E82.68554
G1 F1519.4 X209.897 Y210.639 E82.70701
G1 F1498 X210.45 Y210.748 E82.72451
G1 F1468.6 X219.716 Y210.756 E83.01806
G1 F1465.7 X220.119 Y210.841 E83.03113
G1 F1474.4 X220.709 Y211.112 E83.05162
G1 F1480.2 X221.197 Y211.53 E83.07182
G1 X221.537 Y212.067 E83.09179
G1 F1462.8 X221.718 Y212.677 E83.11203
G1 F1477.3 X221.722 Y213.32 E83.13228
G1 F1492 X221.542 Y213.931 E83.15214
G1 F1486.1 X221.195 Y214.464 E83.17205
G1 F1474.4 X220.709 Y214.884 E83.19232
G1 F1477.3 X220.119 Y215.161 E83.21285
G1 F1489.1 X219.717 Y215.25 E83.22571
G1 F1492 X210.316 Y215.25 E83.51885
G1 F1510.2 X209.854 Y215.378 E83.53362
G1 F1522.5 X209.297 Y215.736 E83.55385
G1 F1510.2 X208.927 Y216.231 E83.57289
G1 F1498 X208.765 Y216.781 E83.5907
G1 F1510.2 X208.822 Y217.478 E83.61224
G1 F1525.6 X209.098 Y218.037 E83.63125
G1 F1522.5 X209.302 Y218.268 E83.64067
G1 F1519.4 X209.897 Y218.639 E83.66214
G1 F1498 X210.45 Y218.748 E83.67965
G1 F1468.6 X219.716 Y218.756 E83.9732
G1 F1465.7 X220.119 Y218.841 E83.98627
G1 F1474.4 X220.709 Y219.112 E84.00676
G1 F1480.2 X221.197 Y219.53 E84.02695
G1 X221.537 Y220.067 E84.04693
G1 F1462.8 X221.718 Y220.677 E84.06717
G1 F1477.3 X221.722 Y221.32 E84.08742
G1 F1492 X221.542 Y221.931 E84.10728
G1 F1486.1 X221.195 Y222.464 E84.12719
G1 F1474.4 X220.709 Y222.884 E84.14746
G1 F1477.3 X220.119 Y223.161 E84.16799
G1 F1489.1 X219.717 Y223.25 E84.18085
G1 F1492 X208.75 Y223.25 E84.52282
G1 X208.75 Y222.75 E84.53841
G1 F1495 X219.695 Y222.75 E84.87901
G1 F1513.2 X220.143 Y222.621 E84.89334
G1 F1528.7 X220.641 Y222.316 E84.91111
G1 F1510.2 X221.077 Y221.747 E84.93319
G1 F1498 X221.242 Y221.175 E84.95168
G1 F1510.2 X221.185 Y220.559 E84.97074
G1 F1522.5 X220.898 Y219.959 E84.99107
G1 F1528.7 X220.694 Y219.728 E85.00045
G1 F1535 X220.141 Y219.374 E85.02035
G1 F1510.2 X219.544 Y219.252 E85.03912
G1 F1468.6 X210.284 Y219.244 E85.33248
G1 F1462.8 X209.877 Y219.158 E85.34571
G1 F1468.6 X209.288 Y218.884 E85.36629
G1 F1480.2 X208.799 Y218.466 E85.38651
G1 X208.459 Y217.929 E85.40648
G1 F1462.8 X208.278 Y217.319 E85.42672
G1 F1477.3 X208.274 Y216.676 E85.44697
G1 F1492 X208.454 Y216.065 E85.46683
G1 F1480.2 X208.802 Y215.532 E85.48684
G1 F1465.7 X209.288 Y215.113 E85.50721
G1 F1471.4 X209.531 Y215 E85.51568
M204 S2500
G0 F15000 X209.712 Y214.916
;MESH:NONMESH
G0 F600 X209.712 Y214.916 Z1.8
G0 F15000 X209.531 Y215
;TIME_ELAPSED:99.147224
;LAYER:11
;note -- min layer time used
M204 S1250
;TYPE:WALL-OUTER
;MESH:spring.stl
G1 F1480.2 X209.876 Y214.84 E85.52764
G1 F1486.1 X210.283 Y214.75 E85.54068
G1 F1495 X219.695 Y214.75 E85.83358
G1 F1513.2 X220.143 Y214.621 E85.84791
G1 F1528.7 X220.641 Y214.316 E85.86568
G1 F1510.2 X221.077 Y213.747 E85.88777
G1 F1498 X221.242 Y213.175 E85.90625
G1 F1510.2 X221.185 Y212.559 E85.92531
G1 F1522.5 X220.898 Y211.959 E85.94564
G1 F1528.7 X220.694 Y211.728 E85.95502
G1 F1535 X220.141 Y211.374 E85.97492
G1 F1510.2 X219.544 Y211.252 E85.99369
G1 F1468.6 X210.284 Y211.244 E86.28705
G1 F1462.8 X209.877 Y211.158 E86.30028
G1 F1468.6 X209.288 Y210.884 E86.32086
G1 F1480.2 X208.799 Y210.466 E86.34108
G1 X208.459 Y209.929 E86.36106
G1 F1462.8 X208.278 Y209.319 E86.38129
G1 F1477.3 X208.274 Y208.676 E86.40154
G1 F1492 X208.454 Y208.065 E86.4214
G1 F1483.2 X208.802 Y207.532 E86.44137
G1 F1468.6 X209.287 Y207.113 E86.46168
G1 X209.877 Y206.842 E86.48225
G1 F1462.8 X210.284 Y206.756 E86.49548
G1 F1474.4 X221.25 Y206.75 E86.84151
G1 F1492 X221.25 Y207.25 E86.8571
G1 F1486.1 X210.452 Y207.251 E87.19515
G1 F1492 X209.911 Y207.356 E87.21233
G1 F1513.2 X209.297 Y207.733 E87.23448
G1 F1510.2 X208.927 Y208.231 E87.2536
G1 F1498 X208.765 Y208.781 E87.2714
G1 F1510.2 X208.822 Y209.478 E87.29295
G1 F1525.6 X209.098 Y210.037 E87.31196
G1 F1522.5 X209.302 Y210.268 E87.32138
G1 F1519.4 X209.897 Y210.639 E87.34285
G1 F1498 X210.45 Y210.748 E87.36035
G1 F1468.6 X219.716 Y210.756 E87.6539
G1 F1465.7 X220.119 Y210.841 E87.66698
G1 F1474.4 X220.709 Y211.112 E87.68746
G1 F1480.2 X221.197 Y211.53 E87.70766
G1 X221.537 Y212.067 E87.72764
G1 F1462.8 X221.718 Y212.677 E87.74787
G1 F1477.3 X221.722 Y213.32 E87.76812
G1 F1492 X221.542 Y213.931 E87.78798
G1 F1486.1 X221.195 Y214.464 E87.8079
G1 F1474.4 X220.709 Y214.884 E87.82816
G1 F1477.3 X220.119 Y215.161 E87.84869
G1 F1489.1 X219.717 Y215.25 E87.86156
G1 F1492 X210.316 Y215.25 E88.15469
G1 F1510.2 X209.854 Y215.378 E88.16946
G1 F1522.5 X209.297 Y215.736 E88.18969
G1 F1510.2 X208.927 Y216.231 E88.20873
G1 F1498 X208.765 Y216.781 E88.22654
G1 F1510.2 X208.822 Y217.478 E88.24808
G1 F1525.6 X209.098 Y218.037 E88.2671
G1 F1522.5 X209.302 Y218.268 E88.27651
G1 F1519.4 X209.897 Y218.639 E88.29798
G1 F1498 X210.45 Y218.748 E88.31549
G1 F1468.6 X219.716 Y218.756 E88.60904
G1 F1465.7 X220.119 Y218.841 E88.62211
G1 F1474.4 X220.709 Y219.112 E88.6426
G1 F1480.2 X221.197 Y219.53 E88.6628
G1 X221.537 Y220.067 E88.68277
G1 F1462.8 X221.718 Y220.677 E88.70301
G1 F1477.3 X221.722 Y221.32 E88.72326
G1 F1492 X221.542 Y221.931 E88.74312
G1 F1486.1 X221.195 Y222.464 E88.76303
G1 F1474.4 X220.709 Y222.884 E88.7833
G1 F1477.3 X220.119 Y223.161 E88.80383
G1 F1489.1 X219.717 Y223.25 E88.81669
G1 F1492 X208.75 Y223.25 E89.15866
G1 X208.75 Y222.75 E89.17425
G1 F1495 X219.695 Y222.75 E89.51485
G1 F1513.2 X220.143 Y222.621 E89.52918
G1 F1528.7 X220.641 Y222.316 E89.54695
G1 F1510.2 X221.077 Y221.747 E89.56904
G1 F1498 X221.242 Y221.175 E89.58752
G1 F1510.2 X221.185 Y220.559 E89.60658
G1 F1522.5 X220.898 Y219.959 E89.62691
G1 F1528.7 X220.694 Y219.728 E89.63629
G1 F1535 X220.141 Y219.374 E89.65619
G1 F1510.2 X219.544 Y219.252 E89.67496
G1 F1468.6 X210.284 Y219.244 E89.96832
G1 F1462.8 X209.877 Y219.158 E89.98155
G1 F1468.6 X209.288 Y218.884 E90.00213
G1 F1480.2 X208.799 Y218.466 E90.02235
G1 X208.459 Y217.929 E90.04233
G1 F1462.8 X208.278 Y217.319 E90.06256
G1 F1477.3 X208.274 Y216.676 E90.08281
G1 F1492 X208.454 Y216.065 E90.10267
G1 F1480.2 X208.802 Y215.532 E90.12268
G1 F1465.7 X209.288 Y215.113 E90.14305
G1 F1471.4 X209.531 Y215 E90.15152
M204 S2500
G0 F15000 X209.712 Y214.916
;TIME_ELAPSED:105.206351
G1 F2700 E89.65152
M140 S0
M204 S5000
M107
G91 ;Relative positioning
G1 E-2 F2700 ;Retract a bit
G1 E-2 Z0.2 F2400 ;Retract and raise Z
G1 X5 Y5 F3000 ;Wipe out
G1 Z2 ;Raise Z more
G90 ;Absolute positioning
G1 X0 Y425 ;Present print
M106 S0 ;Turn-off fan
M104 S0 ;Turn-off hotend
M140 S0 ;Turn-off bed
M84 X Y E ;Disable all steppers but Z
M82 ;absolute extrusion mode
M104 S0
;End of Gcode
;SETTING_3 {"global_quality": "[general]\\nversion = 4\\nname = Normal #2\\ndefi
;SETTING_3 nition = elegoo_neptune_4max\\n\\n[metadata]\\ntype = quality_changes
;SETTING_3 \\nquality_type = Elegoo_layer_015\\nsetting_version = 24\\n\\n[value
;SETTING_3 s]\\nadhesion_type = brim\\nsupport_enable = True\\nsupport_structure
;SETTING_3  = tree\\nsupport_type = everywhere\\n\\n", "extruder_quality": ["[ge
;SETTING_3 neral]\\nversion = 4\\nname = Normal #2\\ndefinition = elegoo_neptune
;SETTING_3 _4max\\n\\n[metadata]\\ntype = quality_changes\\nquality_type = Elego
;SETTING_3 o_layer_015\\nsetting_version = 24\\nposition = 0\\n\\n[values]\\ninf
;SETTING_3 ill_sparse_density = 20\\n\\n"]}
